{"type":"FeatureCollection","crs":{"type":"name","properties":{"name":"EPSG:9333"}},"features":[{"type":"Feature","id":1,"geometry":{"type":"Point","coordinates":[50.19993591900004,26.295730789000061]},"properties":{"OBJECTID":1,"RoadName":"Al Amir Humud Bin Abdulaziz Street","Type":"Sewerage"}},{"type":"Feature","id":2,"geometry":{"type":"Point","coordinates":[50.199919610000052,26.295716415000072]},"properties":{"OBJECTID":2,"RoadName":"Al Amir Humud Bin Abdulaziz Street","Type":"Sewerage"}},{"type":"Feature","id":3,"geometry":{"type":"Point","coordinates":[50.20006378800008,26.295616983000059]},"properties":{"OBJECTID":3,"RoadName":"Al Amir Humud Bin Abdulaziz Street","Type":"Sewerage"}},{"type":"Feature","id":4,"geometry":{"type":"Point","coordinates":[50.200338505000047,26.296684261000053]},"properties":{"OBJECTID":4,"RoadName":"Al Amir Humud Bin Abdulaziz Street","Type":"Strom Water Drain"}},{"type":"Feature","id":5,"geometry":{"type":"Point","coordinates":[50.200310930000057,26.296486809000044]},"properties":{"OBJECTID":5,"RoadName":"Al Amir Humud Bin Abdulaziz Street","Type":"Sewerage"}},{"type":"Feature","id":6,"geometry":{"type":"Point","coordinates":[50.200516772000071,26.297440978000054]},"properties":{"OBJECTID":6,"RoadName":"Al Amir Humud Bin Abdulaziz Street","Type":"Sewerage"}},{"type":"Feature","id":7,"geometry":{"type":"Point","coordinates":[50.200491611000075,26.297440978000054]},"properties":{"OBJECTID":7,"RoadName":"Al Amir Humud Bin Abdulaziz Street","Type":"Sewerage"}},{"type":"Feature","id":8,"geometry":{"type":"Point","coordinates":[50.200326163000057,26.297492569000042]},"properties":{"OBJECTID":8,"RoadName":"Al Amir Humud Bin Abdulaziz Street","Type":"Sewerage"}},{"type":"Feature","id":9,"geometry":{"type":"Point","coordinates":[50.200271394000026,26.297393484000054]},"properties":{"OBJECTID":9,"RoadName":"Al Amir Humud Bin Abdulaziz Street","Type":"Sewerage"}},{"type":"Feature","id":10,"geometry":{"type":"Point","coordinates":[50.200228110000069,26.297416119000047]},"properties":{"OBJECTID":10,"RoadName":"19th Street","Type":"Sewerage"}},{"type":"Feature","id":11,"geometry":{"type":"Point","coordinates":[50.200311931000044,26.297524083000042]},"properties":{"OBJECTID":11,"RoadName":"Al Amir Humud Bin Abdulaziz Street","Type":"Sewerage"}},{"type":"Feature","id":12,"geometry":{"type":"Point","coordinates":[50.200294395000071,26.297521542000027]},"properties":{"OBJECTID":12,"RoadName":"Al Amir Humud Bin Abdulaziz Street","Type":"Sewerage"}},{"type":"Feature","id":13,"geometry":{"type":"Point","coordinates":[50.200279146000071,26.297522813000057]},"properties":{"OBJECTID":13,"RoadName":"Al Amir Humud Bin Abdulaziz Street","Type":"Sewerage"}},{"type":"Feature","id":14,"geometry":{"type":"Point","coordinates":[50.200761021000062,26.297445505000042]},"properties":{"OBJECTID":14,"RoadName":"19th Street","Type":"Strom Water Drain"}},{"type":"Feature","id":15,"geometry":{"type":"Point","coordinates":[50.20835756200006,26.298318954000024]},"properties":{"OBJECTID":15,"RoadName":"22nd Street","Type":"Sewerage"}},{"type":"Feature","id":16,"geometry":{"type":"Point","coordinates":[50.207894578000037,26.29838600000005]},"properties":{"OBJECTID":16,"RoadName":"22nd Street","Type":"Sewerage"}},{"type":"Feature","id":17,"geometry":{"type":"Point","coordinates":[50.204966676000026,26.298875195000051]},"properties":{"OBJECTID":17,"RoadName":"22nd Street","Type":"Sewerage"}},{"type":"Feature","id":18,"geometry":{"type":"Point","coordinates":[50.20432874800008,26.298972205000041]},"properties":{"OBJECTID":18,"RoadName":"22nd Street","Type":"Sewerage"}},{"type":"Feature","id":19,"geometry":{"type":"Point","coordinates":[50.203190266000036,26.299122143000034]},"properties":{"OBJECTID":19,"RoadName":"22nd Street","Type":"Sewerage"}},{"type":"Feature","id":20,"geometry":{"type":"Point","coordinates":[50.202086079000026,26.299325735000025]},"properties":{"OBJECTID":20,"RoadName":"22nd Street","Type":"Sewerage"}},{"type":"Feature","id":21,"geometry":{"type":"Point","coordinates":[50.202064607000068,26.299413144000027]},"properties":{"OBJECTID":21,"RoadName":"22nd Street","Type":"Sewerage"}},{"type":"Feature","id":22,"geometry":{"type":"Point","coordinates":[50.205044719000057,26.298950409000042]},"properties":{"OBJECTID":22,"RoadName":"Prince Miqren Bin Abdulxziz St.","Type":"Sewerage"}},{"type":"Feature","id":23,"geometry":{"type":"Point","coordinates":[50.201807396000049,26.29526859300006]},"properties":{"OBJECTID":23,"RoadName":"16th Street","Type":"Sewerage"}},{"type":"Feature","id":24,"geometry":{"type":"Point","coordinates":[50.202410594000071,26.295156710000072]},"properties":{"OBJECTID":24,"RoadName":"16th Street","Type":"Sewerage"}},{"type":"Feature","id":25,"geometry":{"type":"Point","coordinates":[50.205985369000075,26.294703842000047]},"properties":{"OBJECTID":25,"RoadName":"16th Street","Type":"Sewerage"}},{"type":"Feature","id":26,"geometry":{"type":"Point","coordinates":[50.206546632000027,26.294597293000038]},"properties":{"OBJECTID":26,"RoadName":"16th Street","Type":"Sewerage"}},{"type":"Feature","id":27,"geometry":{"type":"Point","coordinates":[50.207097415000078,26.294320989000028]},"properties":{"OBJECTID":27,"RoadName":"Prince Abdul Mohshin Street","Type":"Sewerage"}},{"type":"Feature","id":28,"geometry":{"type":"Point","coordinates":[50.208027506000064,26.295262756000056]},"properties":{"OBJECTID":28,"RoadName":"King Abdulaziz Road","Type":"Sewerage"}},{"type":"Feature","id":29,"geometry":{"type":"Point","coordinates":[50.206832018000057,26.297414630000048]},"properties":{"OBJECTID":29,"RoadName":"20th Street","Type":"Sewerage"}},{"type":"Feature","id":30,"geometry":{"type":"Point","coordinates":[50.206540519000043,26.297480858000029]},"properties":{"OBJECTID":30,"RoadName":"20th Street","Type":"Sewerage"}},{"type":"Feature","id":31,"geometry":{"type":"Point","coordinates":[50.206368366000049,26.296592858000054]},"properties":{"OBJECTID":31,"RoadName":"Prince Methab Street","Type":"Sewerage"}},{"type":"Feature","id":32,"geometry":{"type":"Point","coordinates":[50.206737445000044,26.295487004000051]},"properties":{"OBJECTID":32,"RoadName":"17th Street","Type":"Sewerage"}},{"type":"Feature","id":33,"geometry":{"type":"Point","coordinates":[50.208177698000043,26.296214054000075]},"properties":{"OBJECTID":33,"RoadName":"19th Street","Type":"Strom Water Drain"}},{"type":"Feature","id":34,"geometry":{"type":"Point","coordinates":[50.208152850000033,26.296275084000058]},"properties":{"OBJECTID":34,"RoadName":"19th Street","Type":"Strom Water Drain"}},{"type":"Feature","id":35,"geometry":{"type":"Point","coordinates":[50.20364466400008,26.298470372000054]},"properties":{"OBJECTID":35,"RoadName":"Prince Abdul Salam Street","Type":"Sewerage"}},{"type":"Feature","id":36,"geometry":{"type":"Point","coordinates":[50.207433488000049,26.296009165000044]},"properties":{"OBJECTID":36,"RoadName":"Prince Abdul Mohshin Street","Type":"Sewerage"}},{"type":"Feature","id":37,"geometry":{"type":"Point","coordinates":[50.207130708000079,26.294953259000067]},"properties":{"OBJECTID":37,"RoadName":"Prince Abdul Mohshin Street","Type":"Sewerage"}},{"type":"Feature","id":38,"geometry":{"type":"Point","coordinates":[50.207207550000078,26.295260626000072]},"properties":{"OBJECTID":38,"RoadName":"Prince Abdul Mohshin Street","Type":"Electrical"}},{"type":"Feature","id":39,"geometry":{"type":"Point","coordinates":[50.207709937000061,26.297560959000066]},"properties":{"OBJECTID":39,"RoadName":"Prince Abdul Mohshin Street","Type":"Sewerage"}},{"type":"Feature","id":40,"geometry":{"type":"Point","coordinates":[50.207711418000031,26.297878218000051]},"properties":{"OBJECTID":40,"RoadName":"Prince Abdul Mohshin Street","Type":"Sewerage"}},{"type":"Feature","id":42,"geometry":{"type":"Point","coordinates":[50.207237441000075,26.297869784000056]},"properties":{"OBJECTID":42,"RoadName":"Prince Abdul Rahman Street","Type":"Sewerage"}},{"type":"Feature","id":43,"geometry":{"type":"Point","coordinates":[50.206353849000038,26.296581954000033]},"properties":{"OBJECTID":43,"RoadName":"Prince Methab Street","Type":"Sewerage"}},{"type":"Feature","id":44,"geometry":{"type":"Point","coordinates":[50.200752836000049,26.295597430000043]},"properties":{"OBJECTID":44,"RoadName":"Prince Sattam Street","Type":"Sewerage"}},{"type":"Feature","id":45,"geometry":{"type":"Point","coordinates":[50.201868144000059,26.298390224000059]},"properties":{"OBJECTID":45,"RoadName":"Prince Abdulmajid Street","Type":"Sewerage"}},{"type":"Feature","id":46,"geometry":{"type":"Point","coordinates":[50.201833553000029,26.298387675000072]},"properties":{"OBJECTID":46,"RoadName":"Prince Abdulmajid Street","Type":"Sewerage"}},{"type":"Feature","id":47,"geometry":{"type":"Point","coordinates":[50.201958081000043,26.299121373000048]},"properties":{"OBJECTID":47,"RoadName":"Prince Abdulmajid Street","Type":"Sewerage"}},{"type":"Feature","id":48,"geometry":{"type":"Point","coordinates":[50.202013427000054,26.299109357000077]},"properties":{"OBJECTID":48,"RoadName":"Prince Abdulmajid Street","Type":"Sewerage"}},{"type":"Feature","id":49,"geometry":{"type":"Point","coordinates":[50.202947936000044,26.297844046000023]},"properties":{"OBJECTID":49,"RoadName":"Prince Hathool Street","Type":"Sewerage"}},{"type":"Feature","id":50,"geometry":{"type":"Point","coordinates":[50.202751381000041,26.296916297000053]},"properties":{"OBJECTID":50,"RoadName":"Prince Hathool Street","Type":"Sewerage"}},{"type":"Feature","id":51,"geometry":{"type":"Point","coordinates":[50.206753598000034,26.29857738100003]},"properties":{"OBJECTID":51,"RoadName":"22nd Street","Type":"Sewerage"}},{"type":"Feature","id":52,"geometry":{"type":"Point","coordinates":[50.207326261000048,26.298472118000063]},"properties":{"OBJECTID":52,"RoadName":"22nd Street","Type":"Sewerage"}},{"type":"Feature","id":53,"geometry":{"type":"Point","coordinates":[50.208544104000055,26.297353548000046]},"properties":{"OBJECTID":53,"RoadName":"King Abdulaziz Road","Type":"Sewerage"}},{"type":"Feature","id":54,"geometry":{"type":"Point","coordinates":[50.208280209000065,26.296282014000042]},"properties":{"OBJECTID":54,"RoadName":"King Abdulaziz Road","Type":"Sewerage"}},{"type":"Feature","id":55,"geometry":{"type":"Point","coordinates":[50.207812071000035,26.294404116000067]},"properties":{"OBJECTID":55,"RoadName":"16th Street","Type":"Sewerage"}},{"type":"Feature","id":56,"geometry":{"type":"Point","coordinates":[50.207713744000046,26.294237388000056]},"properties":{"OBJECTID":56,"RoadName":"16th Street","Type":"Sewerage"}}]}