{"type":"FeatureCollection","crs":{"type":"name","properties":{"name":"EPSG:9333"}},"features":[{"type":"Feature","id":1,"geometry":{"type":"Point","coordinates":[50.200215034000053,26.295685268000057]},"properties":{"OBJECTID":1,"RoadName":"16th Street"}},{"type":"Feature","id":2,"geometry":{"type":"Point","coordinates":[50.200181908000047,26.295724910000047]},"properties":{"OBJECTID":2,"RoadName":"Al Amir Humud Bin Abdulaziz Street"}},{"type":"Feature","id":3,"geometry":{"type":"Point","coordinates":[50.200043434000065,26.295763466000039]},"properties":{"OBJECTID":3,"RoadName":"Al Amir Humud Bin Abdulaziz Street"}},{"type":"Feature","id":4,"geometry":{"type":"Point","coordinates":[50.19991907800005,26.295766181000033]},"properties":{"OBJECTID":4,"RoadName":"Al Amir Humud Bin Abdulaziz Street"}},{"type":"Feature","id":5,"geometry":{"type":"Point","coordinates":[50.199857715000064,26.295511497000064]},"properties":{"OBJECTID":5,"RoadName":"Al Amir Humud Bin Abdulaziz Street"}},{"type":"Feature","id":6,"geometry":{"type":"Point","coordinates":[50.199990759000059,26.295460994000052]},"properties":{"OBJECTID":6,"RoadName":"Al Amir Humud Bin Abdulaziz Street"}},{"type":"Feature","id":7,"geometry":{"type":"Point","coordinates":[50.200119459000064,26.295464252000045]},"properties":{"OBJECTID":7,"RoadName":"Al Amir Humud Bin Abdulaziz Street"}},{"type":"Feature","id":8,"geometry":{"type":"Point","coordinates":[50.201004609000051,26.299590247000026]},"properties":{"OBJECTID":8,"RoadName":"22nd Street"}},{"type":"Feature","id":9,"geometry":{"type":"Point","coordinates":[50.200847672000066,26.299661928000035]},"properties":{"OBJECTID":9,"RoadName":"Al Amir Humud Bin Abdulaziz Street"}},{"type":"Feature","id":10,"geometry":{"type":"Point","coordinates":[50.200721144000056,26.299678219000043]},"properties":{"OBJECTID":10,"RoadName":"Al Amir Humud Bin Abdulaziz Street"}},{"type":"Feature","id":11,"geometry":{"type":"Point","coordinates":[50.200641318000066,26.299468607000051]},"properties":{"OBJECTID":11,"RoadName":"22nd Street"}},{"type":"Feature","id":12,"geometry":{"type":"Point","coordinates":[50.200637516000029,26.299386065000078]},"properties":{"OBJECTID":12,"RoadName":"22nd Street"}},{"type":"Feature","id":13,"geometry":{"type":"Point","coordinates":[50.200785222000036,26.29935837000005]},"properties":{"OBJECTID":13,"RoadName":"Al Amir Humud Bin Abdulaziz Street"}},{"type":"Feature","id":14,"geometry":{"type":"Point","coordinates":[50.200899260000028,26.29934968200007]},"properties":{"OBJECTID":14,"RoadName":"Al Amir Humud Bin Abdulaziz Street"}},{"type":"Feature","id":15,"geometry":{"type":"Point","coordinates":[50.200960080000073,26.299424621000071]},"properties":{"OBJECTID":15,"RoadName":"22nd Street"}},{"type":"Feature","id":16,"geometry":{"type":"Point","coordinates":[50.200945961000059,26.299335563000056]},"properties":{"OBJECTID":16,"RoadName":"Al Amir Humud Bin Abdulaziz Street"}},{"type":"Feature","id":17,"geometry":{"type":"Point","coordinates":[50.204823117000046,26.298815402000059]},"properties":{"OBJECTID":17,"RoadName":"22nd Street"}},{"type":"Feature","id":18,"geometry":{"type":"Point","coordinates":[50.204843148000066,26.298944231000064]},"properties":{"OBJECTID":18,"RoadName":"22nd Street"}},{"type":"Feature","id":19,"geometry":{"type":"Point","coordinates":[50.204895387000079,26.299004326000045]},"properties":{"OBJECTID":19,"RoadName":"Prince Miqren Bin Abdulaziz Street"}},{"type":"Feature","id":20,"geometry":{"type":"Point","coordinates":[50.204990438000038,26.298985080000023]},"properties":{"OBJECTID":20,"RoadName":"Prince Miqren Bin Abdulaziz Street"}},{"type":"Feature","id":21,"geometry":{"type":"Point","coordinates":[50.204943698000079,26.298742738000044]},"properties":{"OBJECTID":21,"RoadName":"Prince Miqren Bin Abdulaziz Street"}},{"type":"Feature","id":22,"geometry":{"type":"Point","coordinates":[50.205025788000057,26.298732526000038]},"properties":{"OBJECTID":22,"RoadName":"Prince Miqren Bin Abdulaziz Street"}},{"type":"Feature","id":23,"geometry":{"type":"Point","coordinates":[50.204844057000059,26.298762009000029]},"properties":{"OBJECTID":23,"RoadName":"Prince Miqren Bin Abdulaziz Street"}},{"type":"Feature","id":24,"geometry":{"type":"Point","coordinates":[50.20509295200003,26.298899455000026]},"properties":{"OBJECTID":24,"RoadName":"22nd Street"}},{"type":"Feature","id":25,"geometry":{"type":"Point","coordinates":[50.205084017000047,26.298763850000057]},"properties":{"OBJECTID":25,"RoadName":"22nd Street"}},{"type":"Feature","id":26,"geometry":{"type":"Point","coordinates":[50.20508234700003,26.298960335000061]},"properties":{"OBJECTID":26,"RoadName":"Prince Miqren Bin Abdulaziz Street"}},{"type":"Feature","id":28,"geometry":{"type":"Point","coordinates":[50.204310222000061,26.295004295000069]},"properties":{"OBJECTID":28,"RoadName":"16th Street"}},{"type":"Feature","id":29,"geometry":{"type":"Point","coordinates":[50.204300808000028,26.294889388000058]},"properties":{"OBJECTID":29,"RoadName":"16th Street"}},{"type":"Feature","id":30,"geometry":{"type":"Point","coordinates":[50.204277820000073,26.294796680000047]},"properties":{"OBJECTID":30,"RoadName":"16th Street"}},{"type":"Feature","id":31,"geometry":{"type":"Point","coordinates":[50.204226286000051,26.294754279000074]},"properties":{"OBJECTID":31,"RoadName":"Prince Miqren Bin Abdulaziz Street"}},{"type":"Feature","id":32,"geometry":{"type":"Point","coordinates":[50.204196018000061,26.295078093000029]},"properties":{"OBJECTID":32,"RoadName":"Prince Miqren Bin Abdulaziz Street"}},{"type":"Feature","id":33,"geometry":{"type":"Point","coordinates":[50.204128802000071,26.29477249200005]},"properties":{"OBJECTID":33,"RoadName":"Prince Miqren Bin Abdulaziz Street"}},{"type":"Feature","id":34,"geometry":{"type":"Point","coordinates":[50.204027327000063,26.294790809000062]},"properties":{"OBJECTID":34,"RoadName":"Prince Miqren Bin Abdulaziz Street"}},{"type":"Feature","id":35,"geometry":{"type":"Point","coordinates":[50.203998624000064,26.294842343000028]},"properties":{"OBJECTID":35,"RoadName":"16th Street"}},{"type":"Feature","id":36,"geometry":{"type":"Point","coordinates":[50.204029590000061,26.295037981000064]},"properties":{"OBJECTID":36,"RoadName":"16th Street"}},{"type":"Feature","id":37,"geometry":{"type":"Point","coordinates":[50.204078053000046,26.295061410000073]},"properties":{"OBJECTID":37,"RoadName":"Prince Miqren Bin Abdulaziz Street"}}]}