{"type":"FeatureCollection","crs":{"type":"name","properties":{"name":"EPSG:9333"}},"features":[{"type":"Feature","id":1,"geometry":{"type":"Polygon","coordinates":[[[50.200167187000034,26.295789589000037],[50.200199206000036,26.295811036000032],[50.200261134000073,26.296103423000034],[50.200342793000061,26.296507296000073],[50.200336941000046,26.296508047000032],[50.200326443000051,26.29650648300003],[50.200318625000079,26.296502686000053],[50.20031294100005,26.296497156000044],[50.200310930000057,26.296486809000044],[50.200279130000069,26.296323194000024],[50.200194058000079,26.295914737000032],[50.200167187000034,26.295789589000037]]]},"properties":{"OBJECTID":1,"RoadName":"Al Amir Humud Bin Abdulaziz Street","Shape_Length":0.0015050321946943732,"Shape_Area":1.9206217838443388e-08}},{"type":"Feature","id":2,"geometry":{"type":"Polygon","coordinates":[[[50.200391363000051,26.296781840000051],[50.200464545000045,26.297123202000023],[50.200523455000052,26.297453794000035],[50.200510723000036,26.297442626000077],[50.200500671000043,26.297421406000069],[50.200490721000051,26.297383873000058],[50.200436732000071,26.297105206000026],[50.200371434000033,26.296785825000029],[50.200391363000051,26.296781840000051]]]},"properties":{"OBJECTID":2,"RoadName":"Al Amir Humud Bin Abdulaziz Street","Shape_Length":0.0013943240650225802,"Shape_Area":1.4487404863652396e-08}},{"type":"Feature","id":3,"geometry":{"type":"Polygon","coordinates":[[[50.200091360000044,26.296535242000061],[50.200170936000063,26.296920206000038],[50.200259455000037,26.297337776000063],[50.200235258000077,26.297341464000056],[50.200228861000028,26.29732000100006],[50.200197700000047,26.297326114000043],[50.200116075000039,26.296941605000029],[50.200143887000081,26.296915429000023],[50.200110076000044,26.296909975000062],[50.200050089000058,26.296573503000047],[50.200074629000028,26.296582228000034],[50.200074956000037,26.296551995000073],[50.200091360000044,26.296535242000061]]]},"properties":{"OBJECTID":3,"RoadName":"Al Amir Humud Bin Abdulaziz Street","Shape_Length":0.0017856014892631855,"Shape_Area":4.3106405244752078e-08}},{"type":"Feature","id":4,"geometry":{"type":"Polygon","coordinates":[[[50.200308669000037,26.297563054000022],[50.200403729000072,26.298045082000044],[50.200377902000071,26.298048921000031],[50.200341953000077,26.297888723000028],[50.200289331000079,26.297591382000064],[50.200308669000037,26.297563054000022]]]},"properties":{"OBJECTID":4,"RoadName":"Al Amir Humud Bin Abdulaziz Street","Shape_Length":0.0010178653541276436,"Shape_Area":1.3215186700095775e-08}},{"type":"Feature","id":5,"geometry":{"type":"Polygon","coordinates":[[[50.200601271000039,26.297764474000076],[50.200612319000072,26.297821115000033],[50.200681588000066,26.298176246000025],[50.200671227000043,26.298178428000028],[50.200661956000033,26.298178428000028],[50.200654867000026,26.298175155000024],[50.200539496000033,26.297610907000035],[50.200548221000076,26.297594503000028],[50.200565672000039,26.297589268000024],[50.200601271000039,26.297764474000076]]]},"properties":{"OBJECTID":5,"RoadName":"Al Amir Humud Bin Abdulaziz Street","Shape_Length":0.0012387066575879988,"Shape_Area":1.6875830200215848e-08}},{"type":"Feature","id":6,"geometry":{"type":"Polygon","coordinates":[[[50.200406474000033,26.298451801000056],[50.200356063000072,26.298196961000031],[50.200405648000071,26.298172429000033],[50.200424190000035,26.298164794000058],[50.200487994000071,26.298463638000044],[50.200459809000051,26.298445127000036],[50.200406474000033,26.298451801000056]]]},"properties":{"OBJECTID":6,"RoadName":"Al Amir Humud Bin Abdulaziz Street","Shape_Length":0.00072820268205141606,"Shape_Area":2.0745235120967297e-08}},{"type":"Feature","id":7,"geometry":{"type":"Polygon","coordinates":[[[50.200502799000049,26.298544382000046],[50.200577974000055,26.298902634000058],[50.200533257000075,26.298878094000031],[50.200474026000052,26.29859169100007],[50.200502799000049,26.298544382000046]]]},"properties":{"OBJECTID":7,"RoadName":"Al Amir Humud Bin Abdulaziz Street","Shape_Length":0.00076489776223963204,"Shape_Area":1.2608996536894022e-08}},{"type":"Feature","id":8,"geometry":{"type":"Polygon","coordinates":[[[50.20059871400008,26.298975229000064],[50.200633053000047,26.299156215000039],[50.200600879000035,26.299131130000035],[50.200576185000045,26.299008360000073],[50.20059871400008,26.298975229000064]]]},"properties":{"OBJECTID":8,"RoadName":"Al Amir Humud Bin Abdulaziz Street","Shape_Length":0.00039030620561768183,"Shape_Area":4.2728359991311819e-09}},{"type":"Feature","id":9,"geometry":{"type":"Polygon","coordinates":[[[50.208012544000042,26.295073828000056],[50.208213227000044,26.296065795000061],[50.208140152000055,26.296013988000027],[50.208119430000067,26.295907647000035],[50.208105580000051,26.295841168000038],[50.208121758000061,26.295821552000064],[50.208099602000061,26.295812476000037],[50.208076572000039,26.295701933000032],[50.208089551000057,26.295687486000077],[50.208072099000049,26.295680458000049],[50.208064896000053,26.295645886000045],[50.208048656000074,26.295567902000073],[50.208060942000031,26.295552612000051],[50.208044250000057,26.295546745000024],[50.208018699000036,26.295424055000069],[50.208031984000058,26.295410555000046],[50.208014555000034,26.295404158000053],[50.208004364000033,26.295355222000069],[50.207987867000043,26.295276013000034],[50.208001123000031,26.295264986000063],[50.207984636000049,26.295260498000061],[50.207957616000044,26.295130760000063],[50.207973102000039,26.295119202000024],[50.207953950000046,26.29511315700006],[50.207935651000071,26.295025293000037],[50.208012544000042,26.295073828000056]]]},"properties":{"OBJECTID":9,"RoadName":"King Abdulaziz Road","Shape_Length":0.0023113478512271678,"Shape_Area":6.2406407115981406e-08}},{"type":"Feature","id":10,"geometry":{"type":"Polygon","coordinates":[[[50.208461035000028,26.295240203000048],[50.208502542000076,26.295438087000036],[50.208487802000036,26.295453917000032],[50.208508578000078,26.295466867000073],[50.208548306000068,26.295656269000062],[50.208529484000053,26.295671946000027],[50.208554752000055,26.295687002000022],[50.208609891000037,26.295949877000055],[50.208538316000045,26.295922610000048],[50.208491451000043,26.295730038000045],[50.20838238400006,26.295200039000065],[50.208461035000028,26.295240203000048]]]},"properties":{"OBJECTID":10,"RoadName":"King Abdulaziz Road","Shape_Length":0.001668533293857812,"Shape_Area":4.9969967097275728e-08}},{"type":"Feature","id":11,"geometry":{"type":"Polygon","coordinates":[[[50.208376419000047,26.295168512000032],[50.208322738000049,26.294853240000066],[50.208389701000044,26.294898475000025],[50.208450262000042,26.295190235000064],[50.208376419000047,26.295168512000032]]]},"properties":{"OBJECTID":11,"RoadName":"King Abdulaziz Road","Shape_Length":0.00077557040890591201,"Shape_Area":1.9456082988050392e-08}},{"type":"Feature","id":12,"geometry":{"type":"Polygon","coordinates":[[[50.208734296000046,26.296592351000072],[50.20877495600007,26.296782607000068],[50.208760338000047,26.29679896500005],[50.208780252000054,26.296807389000037],[50.208857298000055,26.297167907000073],[50.208839427000044,26.297185058000025],[50.208862723000038,26.297193292000031],[50.208869778000064,26.297226304000048],[50.208811836000052,26.297280838000063],[50.208798203000072,26.297219488000053],[50.20866783300005,26.296552303000055],[50.208734296000046,26.296592351000072]]]},"properties":{"OBJECTID":12,"RoadName":"King Abdulaziz Road","Shape_Length":0.0015898214981098235,"Shape_Area":4.3438302079883682e-08}},{"type":"Feature","id":13,"geometry":{"type":"Polygon","coordinates":[[[50.208934537000061,26.297562027000026],[50.208990775000075,26.297813393000069],[50.208961804000069,26.297857702000044],[50.208893637000074,26.29756799200004],[50.208934537000061,26.297562027000026]]]},"properties":{"OBJECTID":13,"RoadName":"King Abdulaziz Road","Shape_Length":0.00064947418679345455,"Shape_Area":1.1014964541239529e-08}},{"type":"Feature","id":16,"geometry":{"type":"Polygon","coordinates":[[[50.208583256000054,26.298036402000037],[50.208552650000058,26.298010258000033],[50.208487806000051,26.297690502000023],[50.208509381000056,26.297668065000039],[50.208583256000054,26.298036402000037]]]},"properties":{"OBJECTID":16,"RoadName":"King Abdulaziz Road","Shape_Length":0.00077331626965651773,"Shape_Area":8.8477873746005815e-09}},{"type":"Feature","id":17,"geometry":{"type":"Polygon","coordinates":[[[50.20848378200003,26.297368603000052],[50.208409651000068,26.297329407000063],[50.208367898000063,26.297137687000031],[50.20821281800005,26.296381033000046],[50.208227304000047,26.296363992000067],[50.208282690000033,26.296393815000044],[50.20848378200003,26.297368603000052]]]},"properties":{"OBJECTID":17,"RoadName":"King Abdulaziz Road","Shape_Length":0.0021330367249386586,"Shape_Area":6.5682680764771235e-08}},{"type":"Feature","id":19,"geometry":{"type":"Polygon","coordinates":[[[50.208488070000044,26.298380466000026],[50.20834784300007,26.298397111000043],[50.208053337000081,26.29844197400007],[50.207993457000043,26.298451096000065],[50.207944922000081,26.298422193000079],[50.208531453000035,26.298338091000062],[50.208488070000044,26.298380466000026]]]},"properties":{"OBJECTID":19,"RoadName":"22nd Street","Shape_Length":0.0012093491364969971,"Shape_Area":1.8628996855043625e-08}},{"type":"Feature","id":20,"geometry":{"type":"Polygon","coordinates":[[[50.204223002000049,26.295806498000047],[50.204192289000048,26.295596740000065],[50.204199618000075,26.295576148000066],[50.204173763000028,26.295456646000048],[50.204177114000061,26.295454635000056],[50.204172646000075,26.295436319000032],[50.204165945000057,26.295434755000031],[50.204157680000037,26.295430958000054],[50.204135862000044,26.295326618000047],[50.204147266000064,26.295319273000075],[50.20415773600007,26.295319273000075],[50.204215673000078,26.295584176000034],[50.204259649000051,26.295821506000038],[50.204223002000049,26.295806498000047]]]},"properties":{"OBJECTID":20,"RoadName":"Prince Miqren Bin Abdulxziz Street","Shape_Length":0.001077623688805592,"Shape_Area":1.1551623959645154e-08}},{"type":"Feature","id":21,"geometry":{"type":"Polygon","coordinates":[[[50.204427525000028,26.295822902000054],[50.204298804000075,26.295209072000034],[50.204300985000032,26.295188894000034],[50.20432007200003,26.295182895000039],[50.204330433000052,26.29518398600004],[50.204371879000064,26.29542284300004],[50.204451956000071,26.295799518000024],[50.204427525000028,26.295822902000054]]]},"properties":{"OBJECTID":21,"RoadName":"Prince Miqren Bin Abdulxziz Street","Shape_Length":0.0013392398888765515,"Shape_Area":1.8837438615262987e-08}},{"type":"Feature","id":22,"geometry":{"type":"Polygon","coordinates":[[[50.204455683000049,26.295979531000057],[50.204487528000072,26.295990532000076],[50.20457457100008,26.296467050000047],[50.20454972400006,26.296485418000032],[50.204455683000049,26.295979531000057]]]},"properties":{"OBJECTID":22,"RoadName":"Prince Miqren Bin Abdulxziz Street","Shape_Length":0.001063546940976831,"Shape_Area":1.4257137530490948e-08}},{"type":"Feature","id":23,"geometry":{"type":"Polygon","coordinates":[[[50.204578561000062,26.296599679000053],[50.20465981600006,26.296635126000069],[50.204737254000065,26.297021224000048],[50.204670723000049,26.297008136000045],[50.204578561000062,26.296599679000053]]]},"properties":{"OBJECTID":23,"RoadName":"Prince Miqren Bin Abdulxziz Street","Shape_Length":0.00096896888790041623,"Shape_Area":2.7298142308401172e-08}},{"type":"Feature","id":24,"geometry":{"type":"Polygon","coordinates":[[[50.204817559000048,26.297229209000079],[50.204793241000061,26.297187135000058],[50.205100944000037,26.297136738000063],[50.205082850000053,26.297183782000047],[50.204817559000048,26.297229209000079]]]},"properties":{"OBJECTID":24,"RoadName":"Prince Miqren Bin Abdulxziz Street","Shape_Length":0.00067995488642594228,"Shape_Area":1.291512196746368e-08}},{"type":"Feature","id":25,"geometry":{"type":"Polygon","coordinates":[[[50.204753543000038,26.29714397500004],[50.205057669000041,26.297093256000039],[50.205096778000041,26.29712388400003],[50.204784001000064,26.297175941000035],[50.204753543000038,26.29714397500004]]]},"properties":{"OBJECTID":25,"RoadName":"Prince Miqren Bin Abdulxziz Street","Shape_Length":0.00071923378751971112,"Shape_Area":1.1441061091617736e-08}},{"type":"Feature","id":26,"geometry":{"type":"Polygon","coordinates":[[[50.204784153000048,26.297280804000025],[50.205187702000046,26.297200640000028],[50.205193701000042,26.297240449000071],[50.204795605000072,26.297319523000056],[50.204784153000048,26.297280804000025]]]},"properties":{"OBJECTID":26,"RoadName":"Prince Miqren Bin Abdulxziz Street","Shape_Length":0.00089794299642889522,"Shape_Area":1.6432610239396148e-08}},{"type":"Feature","id":27,"geometry":{"type":"Polygon","coordinates":[[[50.204796696000074,26.29766035800003],[50.204735073000052,26.297350607000055],[50.20480542100006,26.297390417000031],[50.20486595300008,26.297664175000023],[50.204849048000028,26.297676718000048],[50.204796696000074,26.29766035800003]]]},"properties":{"OBJECTID":27,"RoadName":"Prince Miqren Bin Abdulxziz Street","Shape_Length":0.00075292163991610452,"Shape_Area":1.9499487910526217e-08}},{"type":"Feature","id":28,"geometry":{"type":"Polygon","coordinates":[[[50.204830507000054,26.29783704700003],[50.204862681000066,26.297839774000067],[50.205044443000077,26.29871937300004],[50.205009760000053,26.298703790000047],[50.204830507000054,26.29783704700003]]]},"properties":{"OBJECTID":28,"RoadName":"Prince Miqren Bin Abdulxziz Street","Shape_Length":0.0018535795447418542,"Shape_Area":2.7536250623680374e-08}},{"type":"Feature","id":29,"geometry":{"type":"Polygon","coordinates":[[[50.204846343000042,26.298675054000057],[50.204821214000049,26.298668772000042],[50.204808301000071,26.298642247000032],[50.204805508000049,26.298609788000078],[50.204780030000052,26.298520092000047],[50.204792595000072,26.298513809000042],[50.204812140000058,26.298516601000074],[50.204846343000042,26.298675054000057]]]},"properties":{"OBJECTID":29,"RoadName":"Prince Miqren Bin Abdulxziz Street","Shape_Length":0.00037712094079066406,"Shape_Area":4.5468514069385522e-09}},{"type":"Feature","id":30,"geometry":{"type":"Polygon","coordinates":[[[50.204787011000064,26.298479257000054],[50.204754301000037,26.298335211000051],[50.204738847000044,26.298244021000073],[50.204730819000076,26.298231456000053],[50.204715113000077,26.298223778000079],[50.204698710000059,26.298114885000075],[50.204714764000073,26.298106509000036],[50.20472767800004,26.298109650000072],[50.204807952000067,26.29847576700007],[50.204801320000058,26.298479955000062],[50.204787011000064,26.298479257000054]]]},"properties":{"OBJECTID":30,"RoadName":"Prince Miqren Bin Abdulxziz Street","Shape_Length":0.00081109977946961539,"Shape_Area":9.4195176536644815e-09}},{"type":"Feature","id":31,"geometry":{"type":"Polygon","coordinates":[[[50.204703247000054,26.298077191000061],[50.204664157000082,26.297870225000054],[50.204682175000073,26.297857770000064],[50.204725584000073,26.298075446000041],[50.204703247000054,26.298077191000061]]]},"properties":{"OBJECTID":31,"RoadName":"Prince Miqren Bin Abdulxziz Street","Shape_Length":0.00047689609973122478,"Shape_Area":4.5769784285171467e-09}},{"type":"Feature","id":32,"geometry":{"type":"Polygon","coordinates":[[[50.199947682000072,26.295823096000049],[50.200029584000049,26.296231987000056],[50.199998561000029,26.296198481000033],[50.199986151000076,26.296131470000034],[50.19992720700003,26.295849776000068],[50.199947682000072,26.295823096000049]]]},"properties":{"OBJECTID":32,"RoadName":"Al Amir Humud Bin Abdulaziz Street","Shape_Length":0.00085225199111968247,"Shape_Area":9.2651014190292567e-09}},{"type":"Feature","id":33,"geometry":{"type":"Polygon","coordinates":[[[50.200359055000035,26.296611690000077],[50.200371270000062,26.296688111000037],[50.200378495000052,26.296721814000023],[50.20035884400005,26.296724245000064],[50.200343642000064,26.296649887000058],[50.200339175000067,26.296631124000044],[50.200344982000047,26.296613701000069],[50.200355481000031,26.29660610600007],[50.200362182000049,26.296601862000045],[50.200366203000044,26.296601639000073],[50.200359055000035,26.296611690000077]]]},"properties":{"OBJECTID":33,"RoadName":"Al Amir Humud Bin Abdulaziz Street","Shape_Length":0.00028246004795189853,"Shape_Area":2.3340555016749604e-09}}]}