{"type":"FeatureCollection","crs":{"type":"name","properties":{"name":"EPSG:9333"}},"features":[{"type":"Feature","id":1,"geometry":{"type":"Point","coordinates":[50.199849411000059,26.295434482000076]},"properties":{"OBJECTID":1,"RoadName":"Al Amir Humud Bin Abdulaziz Street","Type":"Advertisement Board"}},{"type":"Feature","id":3,"geometry":{"type":"Point","coordinates":[50.199975768000058,26.295414306000055]},"properties":{"OBJECTID":3,"RoadName":"Al Amir Humud Bin Abdulaziz Street","Type":"Road Name"}},{"type":"Feature","id":4,"geometry":{"type":"Point","coordinates":[50.200059360000068,26.296399541000028]},"properties":{"OBJECTID":4,"RoadName":"Al Amir Humud Bin Abdulaziz Street","Type":"Road Sign Board"}},{"type":"Feature","id":5,"geometry":{"type":"Point","coordinates":[50.200343436000026,26.29649850900006]},"properties":{"OBJECTID":5,"RoadName":"17th Street","Type":"Road Sign Board"}},{"type":"Feature","id":6,"geometry":{"type":"Point","coordinates":[50.200375325000039,26.296605132000025]},"properties":{"OBJECTID":6,"RoadName":"17th Street","Type":"Road Sign Board"}},{"type":"Feature","id":7,"geometry":{"type":"Point","coordinates":[50.200367543000027,26.296613031000049]},"properties":{"OBJECTID":7,"RoadName":"17th Street","Type":"Road Name"}},{"type":"Feature","id":8,"geometry":{"type":"Point","coordinates":[50.200367990000075,26.296624646000055]},"properties":{"OBJECTID":8,"RoadName":"17th Street","Type":"Road Sign Board"}},{"type":"Feature","id":9,"geometry":{"type":"Point","coordinates":[50.200410777000059,26.296852235000074]},"properties":{"OBJECTID":9,"RoadName":"Al Amir Humud Bin Abdulaziz Street","Type":"Road Sign Board"}},{"type":"Feature","id":10,"geometry":{"type":"Point","coordinates":[50.200529733000053,26.297433353000031]},"properties":{"OBJECTID":10,"RoadName":"19th Street","Type":"Road Sign Board"}},{"type":"Feature","id":11,"geometry":{"type":"Point","coordinates":[50.200592650000033,26.297544383000059]},"properties":{"OBJECTID":11,"RoadName":"19th Street","Type":"Road Sign Board"}},{"type":"Feature","id":12,"geometry":{"type":"Point","coordinates":[50.200563661000047,26.297571783000024]},"properties":{"OBJECTID":12,"RoadName":"19th Street","Type":"Road Sign Board"}},{"type":"Feature","id":13,"geometry":{"type":"Point","coordinates":[50.200254716000074,26.297371247000058]},"properties":{"OBJECTID":13,"RoadName":"Al Amir Humud Bin Abdulaziz Street","Type":"Road Sign Board"}},{"type":"Feature","id":14,"geometry":{"type":"Point","coordinates":[50.20028132200008,26.29754914800003]},"properties":{"OBJECTID":14,"RoadName":"Al Amir Humud Bin Abdulaziz Street","Type":"Road Sign Board"}},{"type":"Feature","id":15,"geometry":{"type":"Point","coordinates":[50.200975853000045,26.297374026000057]},"properties":{"OBJECTID":15,"RoadName":"19th Street","Type":"Road Sign Board"}},{"type":"Feature","id":16,"geometry":{"type":"Point","coordinates":[50.201099749000036,26.297316050000063]},"properties":{"OBJECTID":16,"RoadName":"Prince Sattam Street","Type":"Road Name"}},{"type":"Feature","id":17,"geometry":{"type":"Point","coordinates":[50.201525442000047,26.297285870000053]},"properties":{"OBJECTID":17,"RoadName":"19th Street","Type":"Road Sign Board"}},{"type":"Feature","id":18,"geometry":{"type":"Point","coordinates":[50.202078605000054,26.297193345000039]},"properties":{"OBJECTID":18,"RoadName":"19th Street","Type":"Road Sign Board"}},{"type":"Feature","id":19,"geometry":{"type":"Point","coordinates":[50.200971882000033,26.299656964000064]},"properties":{"OBJECTID":19,"RoadName":"Al Amir Humud Bin Abdulaziz Street","Type":"Road Sign Board"}},{"type":"Feature","id":20,"geometry":{"type":"Point","coordinates":[50.200937921000047,26.29941513600005]},"properties":{"OBJECTID":20,"RoadName":"22nd Street","Type":"Advertisement Board"}},{"type":"Feature","id":21,"geometry":{"type":"Point","coordinates":[50.201043127000048,26.29938482700004]},"properties":{"OBJECTID":21,"RoadName":"Al Amir Humud Bin Abdulaziz Street","Type":"Road Sign Board"}},{"type":"Feature","id":22,"geometry":{"type":"Point","coordinates":[50.20852031000004,26.298207734000073]},"properties":{"OBJECTID":22,"RoadName":"22nd Street","Type":"Road Sign Board"}},{"type":"Feature","id":23,"geometry":{"type":"Point","coordinates":[50.207924339000044,26.29828524800007]},"properties":{"OBJECTID":23,"RoadName":"22nd Street","Type":"Road Sign Board"}},{"type":"Feature","id":24,"geometry":{"type":"Point","coordinates":[50.207747232000031,26.298330645000078]},"properties":{"OBJECTID":24,"RoadName":"22nd Street","Type":"Road Sign Board"}},{"type":"Feature","id":25,"geometry":{"type":"Point","coordinates":[50.206804115000068,26.298628868000037]},"properties":{"OBJECTID":25,"RoadName":"22nd Street","Type":"Road Sign Board"}},{"type":"Feature","id":27,"geometry":{"type":"Point","coordinates":[50.206236161000049,26.298705806000044]},"properties":{"OBJECTID":27,"RoadName":"22nd Street","Type":"Road Sign Board"}},{"type":"Feature","id":28,"geometry":{"type":"Point","coordinates":[50.20627649100004,26.29869898100003]},"properties":{"OBJECTID":28,"RoadName":"22nd Street","Type":"Road Sign Board"}},{"type":"Feature","id":29,"geometry":{"type":"Point","coordinates":[50.206189005000056,26.298550068000054]},"properties":{"OBJECTID":29,"RoadName":"Prince Mashari Street","Type":"Road Sign Board"}},{"type":"Feature","id":30,"geometry":{"type":"Point","coordinates":[50.205525721000072,26.298817491000023]},"properties":{"OBJECTID":30,"RoadName":"22nd Street","Type":"Road Sign Board"}},{"type":"Feature","id":31,"geometry":{"type":"Point","coordinates":[50.205124276000049,26.298889466000048]},"properties":{"OBJECTID":31,"RoadName":"22nd Street","Type":"Road Sign Board"}},{"type":"Feature","id":32,"geometry":{"type":"Point","coordinates":[50.204026786000043,26.299084741000058]},"properties":{"OBJECTID":32,"RoadName":"22nd Street","Type":"Road Sign Board"}},{"type":"Feature","id":33,"geometry":{"type":"Point","coordinates":[50.204025594000029,26.299104596000063]},"properties":{"OBJECTID":33,"RoadName":"22nd Street","Type":"Road Sign Board"}},{"type":"Feature","id":34,"geometry":{"type":"Point","coordinates":[50.203948160000039,26.299100625000051]},"properties":{"OBJECTID":34,"RoadName":"22nd Street","Type":"Road Sign Board"}},{"type":"Feature","id":35,"geometry":{"type":"Point","coordinates":[50.203952925000067,26.299120480000056]},"properties":{"OBJECTID":35,"RoadName":"22nd Street","Type":"Road Sign Board"}},{"type":"Feature","id":36,"geometry":{"type":"Point","coordinates":[50.203930703000026,26.299103595000076]},"properties":{"OBJECTID":36,"RoadName":"22nd Street","Type":"Road Sign Board"}},{"type":"Feature","id":37,"geometry":{"type":"Point","coordinates":[50.203931720000071,26.299120369000036]},"properties":{"OBJECTID":37,"RoadName":"22nd Street","Type":"Road Sign Board"}},{"type":"Feature","id":43,"geometry":{"type":"Point","coordinates":[50.203251072000057,26.299046445000045]},"properties":{"OBJECTID":43,"RoadName":"22nd Street","Type":"Road Sign Board"}},{"type":"Feature","id":49,"geometry":{"type":"Point","coordinates":[50.20208702900004,26.299216474000048]},"properties":{"OBJECTID":49,"RoadName":"22nd Street","Type":"Road Sign Board"}},{"type":"Feature","id":50,"geometry":{"type":"Point","coordinates":[50.201935013000082,26.299282031000075]},"properties":{"OBJECTID":50,"RoadName":"22nd Street","Type":"Road Sign Board"}},{"type":"Feature","id":51,"geometry":{"type":"Point","coordinates":[50.201330068000061,26.299359026000047]},"properties":{"OBJECTID":51,"RoadName":"Al Amir Humud Bin Abdulaziz Street","Type":"Road Sign Board"}},{"type":"Feature","id":52,"geometry":{"type":"Point","coordinates":[50.204991817000064,26.298996621000072]},"properties":{"OBJECTID":52,"RoadName":"Prince Miqren Bin Abdulxziz St.","Type":"Road Name"}},{"type":"Feature","id":53,"geometry":{"type":"Point","coordinates":[50.204932227000029,26.298690158000056]},"properties":{"OBJECTID":53,"RoadName":"Prince Miqren Bin Abdulxziz St.","Type":"Road Name"}},{"type":"Feature","id":54,"geometry":{"type":"Point","coordinates":[50.204834937000044,26.298682861000032]},"properties":{"OBJECTID":54,"RoadName":"Prince Miqren Bin Abdulxziz St.","Type":"Road Sign Board"}},{"type":"Feature","id":55,"geometry":{"type":"Point","coordinates":[50.205019180000079,26.298615975000075]},"properties":{"OBJECTID":55,"RoadName":"Prince Miqren Bin Abdulxziz St.","Type":"Road Sign Board"}},{"type":"Feature","id":56,"geometry":{"type":"Point","coordinates":[50.204819143000066,26.298155569000073]},"properties":{"OBJECTID":56,"RoadName":"Prince Miqren Bin Abdulxziz St.","Type":"Advertisement Board"}},{"type":"Feature","id":57,"geometry":{"type":"Point","coordinates":[50.204662831000064,26.297842106000076]},"properties":{"OBJECTID":57,"RoadName":"Prince Miqren Bin Abdulxziz St.","Type":"Road Sign Board"}},{"type":"Feature","id":58,"geometry":{"type":"Point","coordinates":[50.204845274000036,26.297840087000054]},"properties":{"OBJECTID":58,"RoadName":"Prince Miqren Bin Abdulxziz St.","Type":"Road Sign Board"}},{"type":"Feature","id":59,"geometry":{"type":"Point","coordinates":[50.204867165000053,26.297799347000023]},"properties":{"OBJECTID":59,"RoadName":"20th Street","Type":"Road Sign Board"}},{"type":"Feature","id":60,"geometry":{"type":"Point","coordinates":[50.204822358000058,26.297692518000076]},"properties":{"OBJECTID":60,"RoadName":"Prince Miqren Bin Abdulxziz St.","Type":"Road Sign Board"}},{"type":"Feature","id":61,"geometry":{"type":"Point","coordinates":[50.204710893000026,26.297627266000063]},"properties":{"OBJECTID":61,"RoadName":"Prince Miqren Bin Abdulxziz St.","Type":"Advertisement Board"}},{"type":"Feature","id":62,"geometry":{"type":"Point","coordinates":[50.204638533000036,26.297721515000035]},"properties":{"OBJECTID":62,"RoadName":"Prince Miqren Bin Abdulxziz St.","Type":"Road Sign Board"}},{"type":"Feature","id":63,"geometry":{"type":"Point","coordinates":[50.204528474000028,26.297197974000028]},"properties":{"OBJECTID":63,"RoadName":"Prince Miqren Bin Abdulxziz St.","Type":"Road Sign Board"}},{"type":"Feature","id":64,"geometry":{"type":"Point","coordinates":[50.204699796000057,26.297077806000061]},"properties":{"OBJECTID":64,"RoadName":"Prince Miqren Bin Abdulxziz St.","Type":"Road Sign Board"}},{"type":"Feature","id":65,"geometry":{"type":"Point","coordinates":[50.204599085000041,26.297072105000041]},"properties":{"OBJECTID":65,"RoadName":"Prince Miqren Bin Abdulxziz St.","Type":"Advertisement Board"}},{"type":"Feature","id":66,"geometry":{"type":"Point","coordinates":[50.204504176000057,26.29705089600003]},"properties":{"OBJECTID":66,"RoadName":"Prince Miqren Bin Abdulxziz St.","Type":"Road Sign Board"}},{"type":"Feature","id":67,"geometry":{"type":"Point","coordinates":[50.204498217000037,26.297082077000027]},"properties":{"OBJECTID":67,"RoadName":"19th Street","Type":"Road Sign Board"}},{"type":"Feature","id":68,"geometry":{"type":"Point","coordinates":[50.204589888000044,26.296567414000037]},"properties":{"OBJECTID":68,"RoadName":"Prince Miqren Bin Abdulxziz St.","Type":"Road Sign Board"}},{"type":"Feature","id":69,"geometry":{"type":"Point","coordinates":[50.204619075000039,26.29654369900004]},"properties":{"OBJECTID":69,"RoadName":"19th Street","Type":"Road Sign Board"}},{"type":"Feature","id":70,"geometry":{"type":"Point","coordinates":[50.204431184000043,26.296712132000039]},"properties":{"OBJECTID":70,"RoadName":"Prince Miqren Bin Abdulxziz St.","Type":"Road Sign Board"}},{"type":"Feature","id":71,"geometry":{"type":"Point","coordinates":[50.204288898000073,26.295998267000073]},"properties":{"OBJECTID":71,"RoadName":"Prince Miqren Bin Abdulxziz St.","Type":"Road Sign Board"}},{"type":"Feature","id":72,"geometry":{"type":"Point","coordinates":[50.204445778000036,26.295857805000026]},"properties":{"OBJECTID":72,"RoadName":"17th Street","Type":"Road Sign Board"}},{"type":"Feature","id":73,"geometry":{"type":"Point","coordinates":[50.204251490000047,26.295880741000076]},"properties":{"OBJECTID":73,"RoadName":"17th Street","Type":"Road Name"}},{"type":"Feature","id":74,"geometry":{"type":"Point","coordinates":[50.204207904000043,26.295890470000074]},"properties":{"OBJECTID":74,"RoadName":"17th Street","Type":"Road Sign Board"}},{"type":"Feature","id":76,"geometry":{"type":"Point","coordinates":[50.204459301000043,26.295939894000071]},"properties":{"OBJECTID":76,"RoadName":"Prince Miqren Bin Abdulxziz St.","Type":"Road Sign Board"}},{"type":"Feature","id":77,"geometry":{"type":"Point","coordinates":[50.204493936000063,26.295927440000071]},"properties":{"OBJECTID":77,"RoadName":"17th Street","Type":"Road Sign Board"}},{"type":"Feature","id":78,"geometry":{"type":"Point","coordinates":[50.204252268000062,26.295853111000042]},"properties":{"OBJECTID":78,"RoadName":"Prince Miqren Bin Abdulxziz St.","Type":"Road Sign Board"}},{"type":"Feature","id":79,"geometry":{"type":"Point","coordinates":[50.204124113000034,26.295156102000078]},"properties":{"OBJECTID":79,"RoadName":"Prince Miqren Bin Abdulxziz St.","Type":"Road Sign Board"}},{"type":"Feature","id":80,"geometry":{"type":"Point","coordinates":[50.204200899000057,26.295098530000075]},"properties":{"OBJECTID":80,"RoadName":"Prince Miqren Bin Abdulxziz St.","Type":"Road Name"}},{"type":"Feature","id":81,"geometry":{"type":"Point","coordinates":[50.203954561000046,26.294844798000042]},"properties":{"OBJECTID":81,"RoadName":"16th Street","Type":"Road Sign Board"}},{"type":"Feature","id":82,"geometry":{"type":"Point","coordinates":[50.203974797000058,26.294756848000077]},"properties":{"OBJECTID":82,"RoadName":"Prince Miqren Bin Abdulxziz St.","Type":"Advertisement Board"}},{"type":"Feature","id":84,"geometry":{"type":"Point","coordinates":[50.20434605500003,26.294877001000032]},"properties":{"OBJECTID":84,"RoadName":"16th Street","Type":"Road Name"}},{"type":"Feature","id":85,"geometry":{"type":"Point","coordinates":[50.200537155000063,26.295511818000023]},"properties":{"OBJECTID":85,"RoadName":"16th Street","Type":"Advertisement Board"}},{"type":"Feature","id":86,"geometry":{"type":"Point","coordinates":[50.200308524000036,26.295668698000043]},"properties":{"OBJECTID":86,"RoadName":"16th Street","Type":"Road Sign Board"}},{"type":"Feature","id":87,"geometry":{"type":"Point","coordinates":[50.200610122000057,26.295615723000026]},"properties":{"OBJECTID":87,"RoadName":"16th Street","Type":"Road Sign Board"}},{"type":"Feature","id":88,"geometry":{"type":"Point","coordinates":[50.200649817000055,26.295617669000023]},"properties":{"OBJECTID":88,"RoadName":"Prince Sattam Street","Type":"Road Name"}},{"type":"Feature","id":89,"geometry":{"type":"Point","coordinates":[50.200664605000043,26.295681491000039]},"properties":{"OBJECTID":89,"RoadName":"Prince Sattam Street","Type":"Road Sign Board"}},{"type":"Feature","id":90,"geometry":{"type":"Point","coordinates":[50.200778678000063,26.295588804000033]},"properties":{"OBJECTID":90,"RoadName":"16th Street","Type":"Road Sign Board"}},{"type":"Feature","id":91,"geometry":{"type":"Point","coordinates":[50.200742072000025,26.295389597000053]},"properties":{"OBJECTID":91,"RoadName":"16th Street","Type":"Road Name"}},{"type":"Feature","id":92,"geometry":{"type":"Point","coordinates":[50.201280207000082,26.295280754000032]},"properties":{"OBJECTID":92,"RoadName":"Prince Abdulmajid Street","Type":"Road Name"}},{"type":"Feature","id":93,"geometry":{"type":"Point","coordinates":[50.201726232000055,26.29532735600003]},"properties":{"OBJECTID":93,"RoadName":"16th Street","Type":"Advertisement Board"}},{"type":"Feature","id":94,"geometry":{"type":"Point","coordinates":[50.201846312000043,26.29519805800004]},"properties":{"OBJECTID":94,"RoadName":"Prince Mashhour Street","Type":"Road Name"}},{"type":"Feature","id":95,"geometry":{"type":"Point","coordinates":[50.201946035000049,26.295397502000071]},"properties":{"OBJECTID":95,"RoadName":"16th Street","Type":"Road Sign Board"}},{"type":"Feature","id":96,"geometry":{"type":"Point","coordinates":[50.203555575000053,26.295018680000055]},"properties":{"OBJECTID":96,"RoadName":"16th Street","Type":"Advertisement Board"}},{"type":"Feature","id":97,"geometry":{"type":"Point","coordinates":[50.203612125000063,26.295117794000078]},"properties":{"OBJECTID":97,"RoadName":"16th Street","Type":"Road Sign Board"}},{"type":"Feature","id":98,"geometry":{"type":"Point","coordinates":[50.203977304000034,26.29496406800007]},"properties":{"OBJECTID":98,"RoadName":"16th Street","Type":"Road Name"}},{"type":"Feature","id":99,"geometry":{"type":"Point","coordinates":[50.204668936000076,26.29483504500007]},"properties":{"OBJECTID":99,"RoadName":"16th Street","Type":"Advertisement Board"}},{"type":"Feature","id":100,"geometry":{"type":"Point","coordinates":[50.204749809000077,26.294943280000041]},"properties":{"OBJECTID":100,"RoadName":"Prince Ahmad Street","Type":"Road Sign Board"}},{"type":"Feature","id":101,"geometry":{"type":"Point","coordinates":[50.204674409000063,26.294943888000034]},"properties":{"OBJECTID":101,"RoadName":"16th Street","Type":"Information"}},{"type":"Feature","id":102,"geometry":{"type":"Point","coordinates":[50.204891487000054,26.29490071500004]},"properties":{"OBJECTID":102,"RoadName":"16th Street","Type":"Road Sign Board"}},{"type":"Feature","id":103,"geometry":{"type":"Point","coordinates":[50.204932908000046,26.294796931000064]},"properties":{"OBJECTID":103,"RoadName":"16th Street","Type":"Advertisement Board"}},{"type":"Feature","id":104,"geometry":{"type":"Point","coordinates":[50.205343277000054,26.294869704000064]},"properties":{"OBJECTID":104,"RoadName":"Prince Mashari Street","Type":"Road Name"}},{"type":"Feature","id":105,"geometry":{"type":"Point","coordinates":[50.205459052000037,26.29480082300006]},"properties":{"OBJECTID":105,"RoadName":"16th Street","Type":"Road Sign Board"}},{"type":"Feature","id":106,"geometry":{"type":"Point","coordinates":[50.205910478000078,26.294632706000073]},"properties":{"OBJECTID":106,"RoadName":"16th Street","Type":"Advertisement Board"}},{"type":"Feature","id":107,"geometry":{"type":"Point","coordinates":[50.205902086000037,26.294746876000033]},"properties":{"OBJECTID":107,"RoadName":"Prince Methab Street","Type":"Road Sign Board"}},{"type":"Feature","id":108,"geometry":{"type":"Point","coordinates":[50.206027347000031,26.29471221600005]},"properties":{"OBJECTID":108,"RoadName":"16th Street","Type":"Road Sign Board"}},{"type":"Feature","id":109,"geometry":{"type":"Point","coordinates":[50.20656548200003,26.294636817000026]},"properties":{"OBJECTID":109,"RoadName":"Prince Abdul Rahman Street","Type":"Road Sign Board"}},{"type":"Feature","id":110,"geometry":{"type":"Point","coordinates":[50.206468800000039,26.29462161500004]},"properties":{"OBJECTID":110,"RoadName":"Prince Abdul Rahman Street","Type":"Road Name"}},{"type":"Feature","id":111,"geometry":{"type":"Point","coordinates":[50.207045267000069,26.294515180000076]},"properties":{"OBJECTID":111,"RoadName":"Prince Abdul Mohshin Street","Type":"Road Name"}},{"type":"Feature","id":112,"geometry":{"type":"Point","coordinates":[50.207054218000053,26.294523352000056]},"properties":{"OBJECTID":112,"RoadName":"Prince Abdul Mohshin Street","Type":"Road Sign Board"}},{"type":"Feature","id":113,"geometry":{"type":"Point","coordinates":[50.207165128000042,26.29452413100006]},"properties":{"OBJECTID":113,"RoadName":"Prince Abdul Mohshin Street","Type":"Road Sign Board"}},{"type":"Feature","id":114,"geometry":{"type":"Point","coordinates":[50.207459333000031,26.294381698000052]},"properties":{"OBJECTID":114,"RoadName":"16th Street","Type":"Advertisement Board"}},{"type":"Feature","id":115,"geometry":{"type":"Point","coordinates":[50.207667144000027,26.294346285000074]},"properties":{"OBJECTID":115,"RoadName":"16th Street","Type":"Advertisement Board"}},{"type":"Feature","id":116,"geometry":{"type":"Point","coordinates":[50.207557401000031,26.294365743000071]},"properties":{"OBJECTID":116,"RoadName":"Prince Abdul Mohshin Street","Type":"Road Sign Board"}},{"type":"Feature","id":117,"geometry":{"type":"Point","coordinates":[50.207842130000074,26.29437699500005]},"properties":{"OBJECTID":117,"RoadName":"King Abdulaziz Road","Type":"Road Sign Board"}},{"type":"Feature","id":118,"geometry":{"type":"Point","coordinates":[50.20783539200005,26.294308167000054]},"properties":{"OBJECTID":118,"RoadName":"King Abdulaziz Road","Type":"Road Sign Board"}},{"type":"Feature","id":120,"geometry":{"type":"Point","coordinates":[50.207673371000055,26.294181378000076]},"properties":{"OBJECTID":120,"RoadName":"16th Street","Type":"Advertisement Board"}},{"type":"Feature","id":121,"geometry":{"type":"Point","coordinates":[50.207706206000069,26.294208133000041]},"properties":{"OBJECTID":121,"RoadName":"16th Street","Type":"Road Sign Board"}},{"type":"Feature","id":122,"geometry":{"type":"Point","coordinates":[50.20771836800003,26.294183202000056]},"properties":{"OBJECTID":122,"RoadName":"16th Street","Type":"Road Sign Board"}},{"type":"Feature","id":123,"geometry":{"type":"Point","coordinates":[50.207865519000052,26.294567650000033]},"properties":{"OBJECTID":123,"RoadName":"King Abdulaziz Road","Type":"Road Sign Board"}},{"type":"Feature","id":124,"geometry":{"type":"Point","coordinates":[50.207934230000035,26.294839909000075]},"properties":{"OBJECTID":124,"RoadName":"King Abdulaziz Road","Type":"Road Sign Board"}},{"type":"Feature","id":126,"geometry":{"type":"Point","coordinates":[50.207964633000074,26.294929294000042]},"properties":{"OBJECTID":126,"RoadName":"King Abdulaziz Road","Type":"Area Name"}},{"type":"Feature","id":127,"geometry":{"type":"Point","coordinates":[50.208050856000057,26.295608329000061]},"properties":{"OBJECTID":127,"RoadName":"King Abdulaziz Road","Type":"Road Sign Board"}},{"type":"Feature","id":128,"geometry":{"type":"Point","coordinates":[50.208052802000054,26.295619226000042]},"properties":{"OBJECTID":128,"RoadName":"King Abdulaziz Road","Type":"Road Sign Board"}},{"type":"Feature","id":130,"geometry":{"type":"Point","coordinates":[50.208082886000057,26.296209778000048]},"properties":{"OBJECTID":130,"RoadName":"19th Street","Type":"Road Sign Board"}},{"type":"Feature","id":131,"geometry":{"type":"Point","coordinates":[50.208264150000048,26.296359396000071]},"properties":{"OBJECTID":131,"RoadName":"King Abdulaziz Road","Type":"Road Sign Board"}},{"type":"Feature","id":132,"geometry":{"type":"Point","coordinates":[50.208365978000074,26.297152278000056]},"properties":{"OBJECTID":132,"RoadName":"20th Street","Type":"Road Sign Board"}},{"type":"Feature","id":133,"geometry":{"type":"Point","coordinates":[50.208362546000046,26.297290145000034]},"properties":{"OBJECTID":133,"RoadName":"King Abdulaziz Road","Type":"Road Sign Board"}},{"type":"Feature","id":134,"geometry":{"type":"Point","coordinates":[50.208269299000051,26.29672036900007]},"properties":{"OBJECTID":134,"RoadName":"King Abdulaziz Road","Type":"Road Sign Board"}},{"type":"Feature","id":135,"geometry":{"type":"Point","coordinates":[50.208293898000079,26.296842791000074]},"properties":{"OBJECTID":135,"RoadName":"King Abdulaziz Road","Type":"Road Sign Board"}},{"type":"Feature","id":136,"geometry":{"type":"Point","coordinates":[50.208480963000056,26.297434306000071]},"properties":{"OBJECTID":136,"RoadName":"King Abdulaziz Road","Type":"Road Sign Board"}},{"type":"Feature","id":137,"geometry":{"type":"Point","coordinates":[50.208512570000039,26.295419386000049]},"properties":{"OBJECTID":137,"RoadName":"King Abdulaziz Road","Type":"Road Sign Board"}},{"type":"Feature","id":138,"geometry":{"type":"Point","coordinates":[50.208360615000061,26.29476687500005]},"properties":{"OBJECTID":138,"RoadName":"King Abdulaziz Road","Type":"Road Sign Board"}},{"type":"Feature","id":139,"geometry":{"type":"Point","coordinates":[50.208461620000037,26.295195030000059]},"properties":{"OBJECTID":139,"RoadName":"King Abdulaziz Road","Type":"Road Sign Board"}},{"type":"Feature","id":140,"geometry":{"type":"Point","coordinates":[50.208571349000067,26.296015585000077]},"properties":{"OBJECTID":140,"RoadName":"King Abdulaziz Road","Type":"Road Sign Board"}},{"type":"Feature","id":141,"geometry":{"type":"Point","coordinates":[50.208582791000026,26.296080228000051]},"properties":{"OBJECTID":141,"RoadName":"King Abdulaziz Road","Type":"Road Sign Board"}},{"type":"Feature","id":142,"geometry":{"type":"Point","coordinates":[50.208764707000057,26.296619113000077]},"properties":{"OBJECTID":142,"RoadName":"King Abdulaziz Road","Type":"Road Sign Board"}},{"type":"Feature","id":143,"geometry":{"type":"Point","coordinates":[50.208786446000033,26.296800458000064]},"properties":{"OBJECTID":143,"RoadName":"King Abdulaziz Road","Type":"Road Sign Board"}},{"type":"Feature","id":144,"geometry":{"type":"Point","coordinates":[50.208804111000063,26.296885078000059]},"properties":{"OBJECTID":144,"RoadName":"King Abdulaziz Road","Type":"Advertisement Board"}},{"type":"Feature","id":145,"geometry":{"type":"Point","coordinates":[50.208863102000066,26.297426869000049]},"properties":{"OBJECTID":145,"RoadName":"King Abdulaziz Road","Type":"Road Sign Board"}},{"type":"Feature","id":146,"geometry":{"type":"Point","coordinates":[50.20885166100004,26.297401698000044]},"properties":{"OBJECTID":146,"RoadName":"King Abdulaziz Road","Type":"Road Sign Board"}},{"type":"Feature","id":147,"geometry":{"type":"Point","coordinates":[50.208954061000043,26.297567597000068]},"properties":{"OBJECTID":147,"RoadName":"King Abdulaziz Road","Type":"Road Sign Board"}},{"type":"Feature","id":148,"geometry":{"type":"Point","coordinates":[50.208996325000044,26.29795634900006]},"properties":{"OBJECTID":148,"RoadName":"King Abdulaziz Road","Type":"Road Sign Board"}},{"type":"Feature","id":151,"geometry":{"type":"Point","coordinates":[50.207734670000036,26.297305019000078]},"properties":{"OBJECTID":151,"RoadName":"20th Street","Type":"Road Sign Board"}},{"type":"Feature","id":152,"geometry":{"type":"Point","coordinates":[50.20771892700003,26.297340899000062]},"properties":{"OBJECTID":152,"RoadName":"Prince Abdul Mohshin Street","Type":"Road Sign Board"}},{"type":"Feature","id":153,"geometry":{"type":"Point","coordinates":[50.207188497000061,26.297401557000057]},"properties":{"OBJECTID":153,"RoadName":"20th Street","Type":"Road Sign Board"}},{"type":"Feature","id":154,"geometry":{"type":"Point","coordinates":[50.207020564000061,26.297301502000039]},"properties":{"OBJECTID":154,"RoadName":"Prince Abdul Rahman Street","Type":"Road Sign Board"}},{"type":"Feature","id":155,"geometry":{"type":"Point","coordinates":[50.207111067000028,26.297310552000056]},"properties":{"OBJECTID":155,"RoadName":"Prince Abdul Rahman Street","Type":"Road Sign Board"}},{"type":"Feature","id":156,"geometry":{"type":"Point","coordinates":[50.206567549000056,26.297432228000048]},"properties":{"OBJECTID":156,"RoadName":"20th Street","Type":"Road Sign Board"}},{"type":"Feature","id":157,"geometry":{"type":"Point","coordinates":[50.206487103000029,26.297582562000059]},"properties":{"OBJECTID":157,"RoadName":"Prince Methab Street","Type":"Road Sign Board"}},{"type":"Feature","id":158,"geometry":{"type":"Point","coordinates":[50.206058316000053,26.297588627000039]},"properties":{"OBJECTID":158,"RoadName":"20th Street","Type":"Road Sign Board"}},{"type":"Feature","id":160,"geometry":{"type":"Point","coordinates":[50.205474984000034,26.297688148000077]},"properties":{"OBJECTID":160,"RoadName":"20th Street","Type":"Road Sign Board"}},{"type":"Feature","id":161,"geometry":{"type":"Point","coordinates":[50.205253538000079,26.297655214000031]},"properties":{"OBJECTID":161,"RoadName":"20th Street","Type":"Road Sign Board"}},{"type":"Feature","id":162,"geometry":{"type":"Point","coordinates":[50.203085903000044,26.298080191000054]},"properties":{"OBJECTID":162,"RoadName":"20th Street","Type":"Road Sign Board"}},{"type":"Feature","id":163,"geometry":{"type":"Point","coordinates":[50.203867158000037,26.29700555900007]},"properties":{"OBJECTID":163,"RoadName":"19th Street","Type":"Road Sign Board"}},{"type":"Feature","id":164,"geometry":{"type":"Point","coordinates":[50.203414382000062,26.297109053000042]},"properties":{"OBJECTID":164,"RoadName":"Prince Abdul Salam Street","Type":"Road Sign Board"}},{"type":"Feature","id":165,"geometry":{"type":"Point","coordinates":[50.202815520000058,26.297004050000055]},"properties":{"OBJECTID":165,"RoadName":"Prince Hathool Street","Type":"Road Sign Board"}},{"type":"Feature","id":166,"geometry":{"type":"Point","coordinates":[50.205651174000081,26.296603915000048]},"properties":{"OBJECTID":166,"RoadName":"19th Street","Type":"Road Sign Board"}},{"type":"Feature","id":167,"geometry":{"type":"Point","coordinates":[50.205681571000071,26.296546827000043]},"properties":{"OBJECTID":167,"RoadName":"Prince Mashari Street","Type":"Road Sign Board"}},{"type":"Feature","id":168,"geometry":{"type":"Point","coordinates":[50.206782445000044,26.296400713000025]},"properties":{"OBJECTID":168,"RoadName":"19th Street","Type":"Road Sign Board"}},{"type":"Feature","id":169,"geometry":{"type":"Point","coordinates":[50.206828312000027,26.296365730000048]},"properties":{"OBJECTID":169,"RoadName":"Prince Abdul Rahman Street","Type":"Road Sign Board"}},{"type":"Feature","id":170,"geometry":{"type":"Point","coordinates":[50.20740048600004,26.296420926000053]},"properties":{"OBJECTID":170,"RoadName":"19th Street","Type":"Road Sign Board"}},{"type":"Feature","id":171,"geometry":{"type":"Point","coordinates":[50.207434692000049,26.29645202200004]},"properties":{"OBJECTID":171,"RoadName":"Prince Abdul Mohshin Street","Type":"Road Sign Board"}},{"type":"Feature","id":172,"geometry":{"type":"Point","coordinates":[50.207333478000066,26.295453237000061]},"properties":{"OBJECTID":172,"RoadName":"17th Street","Type":"Road Name"}},{"type":"Feature","id":173,"geometry":{"type":"Point","coordinates":[50.207305771000051,26.295357767000041]},"properties":{"OBJECTID":173,"RoadName":"Prince Abdul Mohshin Street","Type":"Road Sign Board"}},{"type":"Feature","id":174,"geometry":{"type":"Point","coordinates":[50.206770001000052,26.295546155000068]},"properties":{"OBJECTID":174,"RoadName":"17th Street","Type":"Road Sign Board"}},{"type":"Feature","id":175,"geometry":{"type":"Point","coordinates":[50.206720307000069,26.295425962000024]},"properties":{"OBJECTID":175,"RoadName":"Prince Abdul Rahman Street","Type":"Road Sign Board"}},{"type":"Feature","id":176,"geometry":{"type":"Point","coordinates":[50.205512716000044,26.29564081500007]},"properties":{"OBJECTID":176,"RoadName":"Prince Mashari Street","Type":"Road Sign Board"}},{"type":"Feature","id":177,"geometry":{"type":"Point","coordinates":[50.205593271000055,26.295630911000046]},"properties":{"OBJECTID":177,"RoadName":"Prince Mashari Street","Type":"Road Sign Board"}},{"type":"Feature","id":178,"geometry":{"type":"Point","coordinates":[50.205663923000031,26.295665906000067]},"properties":{"OBJECTID":178,"RoadName":"17th Street","Type":"Road Sign Board"}},{"type":"Feature","id":179,"geometry":{"type":"Point","coordinates":[50.203311674000076,26.296112684000036]},"properties":{"OBJECTID":179,"RoadName":"17th Street","Type":"Road Sign Board"}},{"type":"Feature","id":180,"geometry":{"type":"Point","coordinates":[50.202692259000059,26.296211636000066]},"properties":{"OBJECTID":180,"RoadName":"17th Street","Type":"Road Sign Board"}},{"type":"Feature","id":181,"geometry":{"type":"Point","coordinates":[50.202265183000065,26.296286051000038]},"properties":{"OBJECTID":181,"RoadName":"17th Street","Type":"Road Sign Board"}},{"type":"Feature","id":182,"geometry":{"type":"Point","coordinates":[50.202095647000078,26.296311287000037]},"properties":{"OBJECTID":182,"RoadName":"17th Street","Type":"Road Sign Board"}},{"type":"Feature","id":183,"geometry":{"type":"Point","coordinates":[50.201535271000068,26.296410291000029]},"properties":{"OBJECTID":183,"RoadName":"17th Street","Type":"Road Sign Board"}},{"type":"Feature","id":184,"geometry":{"type":"Point","coordinates":[50.20140520700005,26.296344289000047]},"properties":{"OBJECTID":184,"RoadName":"Prince Abdulmajid Street","Type":"Road Sign Board"}},{"type":"Feature","id":185,"geometry":{"type":"Point","coordinates":[50.201530095000066,26.29634040600007]},"properties":{"OBJECTID":185,"RoadName":"17th Street","Type":"Road Sign Board"}},{"type":"Feature","id":186,"geometry":{"type":"Point","coordinates":[50.201488681000058,26.29631581700005]},"properties":{"OBJECTID":186,"RoadName":"Prince Abdulmajid Street","Type":"Road Name"}},{"type":"Feature","id":188,"geometry":{"type":"Point","coordinates":[50.200825419000068,26.296430351000026]},"properties":{"OBJECTID":188,"RoadName":"Prince Sattam Street","Type":"Road Sign Board"}},{"type":"Feature","id":189,"geometry":{"type":"Point","coordinates":[50.200919894000037,26.29641805600005]},"properties":{"OBJECTID":189,"RoadName":"Prince Sattam Street","Type":"Road Sign Board"}},{"type":"Feature","id":190,"geometry":{"type":"Point","coordinates":[50.205825162000053,26.296686979000071]},"properties":{"OBJECTID":190,"RoadName":"19th Street","Type":"Advertisement Board"}},{"type":"Feature","id":191,"geometry":{"type":"Point","coordinates":[50.202966872000047,26.297782181000059]},"properties":{"OBJECTID":191,"RoadName":"Prince Hathool Street","Type":"Road Sign Board"}},{"type":"Feature","id":192,"geometry":{"type":"Point","coordinates":[50.203543128000035,26.298147031000042]},"properties":{"OBJECTID":192,"RoadName":"Prince Abdul Salam Street","Type":"Road Sign Board"}},{"type":"Feature","id":193,"geometry":{"type":"Point","coordinates":[50.20371533000008,26.298602737000067]},"properties":{"OBJECTID":193,"RoadName":"Prince Abdul Salam Street","Type":"Road Sign Board"}},{"type":"Feature","id":194,"geometry":{"type":"Point","coordinates":[50.203790931000071,26.298926140000049]},"properties":{"OBJECTID":194,"RoadName":"Prince Abdul Salam Street","Type":"Road Sign Board"}},{"type":"Feature","id":195,"geometry":{"type":"Point","coordinates":[50.203672279000045,26.298373834000074]},"properties":{"OBJECTID":195,"RoadName":"Prince Abdul Salam Street","Type":"Road Sign Board"}},{"type":"Feature","id":196,"geometry":{"type":"Point","coordinates":[50.204147935000037,26.297781900000075]},"properties":{"OBJECTID":196,"RoadName":"Prince MamdouhStreet","Type":"Road Sign Board"}},{"type":"Feature","id":197,"geometry":{"type":"Point","coordinates":[50.204211460000067,26.297825203000059]},"properties":{"OBJECTID":197,"RoadName":"20th Street","Type":"Road Sign Board"}},{"type":"Feature","id":198,"geometry":{"type":"Point","coordinates":[50.208123535000027,26.296205284000052]},"properties":{"OBJECTID":198,"RoadName":"19th Street","Type":"Road Name"}},{"type":"Feature","id":199,"geometry":{"type":"Point","coordinates":[50.205888623000078,26.29475446400005]},"properties":{"OBJECTID":199,"RoadName":"Prince Methab Street","Type":"Road Name"}},{"type":"Feature","id":200,"geometry":{"type":"Point","coordinates":[50.202504895000061,26.295973754000045]},"properties":{"OBJECTID":200,"RoadName":"Prince Hathool Street","Type":"Road Sign Board"}},{"type":"Feature","id":201,"geometry":{"type":"Point","coordinates":[50.20323213100005,26.296231299000056]},"properties":{"OBJECTID":201,"RoadName":"Prince Abdul Salam Street","Type":"Road Sign Board"}},{"type":"Feature","id":202,"geometry":{"type":"Point","coordinates":[50.204353978000029,26.298857023000039]},"properties":{"OBJECTID":202,"RoadName":"Prince MamdouhStreet","Type":"Road Name"}},{"type":"Feature","id":203,"geometry":{"type":"Point","coordinates":[50.204351430000031,26.29884245900007]},"properties":{"OBJECTID":203,"RoadName":"Prince MamdouhStreet","Type":"Road Sign Board"}},{"type":"Feature","id":204,"geometry":{"type":"Point","coordinates":[50.204300590000059,26.298551983000038]},"properties":{"OBJECTID":204,"RoadName":"Prince MamdouhStreet","Type":"Road Sign Board"}},{"type":"Feature","id":205,"geometry":{"type":"Point","coordinates":[50.20423174900003,26.298249879000025]},"properties":{"OBJECTID":205,"RoadName":"Prince MamdouhStreet","Type":"Road Sign Board"}},{"type":"Feature","id":206,"geometry":{"type":"Point","coordinates":[50.200897088000033,26.299308411000027]},"properties":{"OBJECTID":206,"RoadName":"Al Amir Humud Bin Abdulaziz Street","Type":"Road sign  Board"}},{"type":"Feature","id":207,"geometry":{"type":"Point","coordinates":[50.20432715100003,26.295000020000032]},"properties":{"OBJECTID":207,"RoadName":"16th Street","Type":"Road Sign Board"}}]}