{"type":"FeatureCollection","crs":{"type":"name","properties":{"name":"EPSG:9333"}},"features":[{"type":"Feature","id":41613,"geometry":{"type":"LineString","coordinates":[[50.202407441000048,26.295264258000032],[50.202591934000054,26.29620013400006],[50.202792351000028,26.297131140000033],[50.202981550000061,26.298064702000033],[50.203191161000063,26.299148023000043]]},"properties":{"OBJECTID":41613,"fclass":"Residential Road","Road_Name":"Prince Hathool Street","maxspeed":20,"Shape_Length":0.0039621754945324029,"GlobalID":"{6965311E-A95E-41E9-9A99-DD45D5A500FB}","created_user":null,"created_date":null,"last_edited_user":"RASOO","last_edited_date":1769535551000,"VALIDATIONSTATUS":0}},{"type":"Feature","id":41614,"geometry":{"type":"LineString","coordinates":[[50.203755354000066,26.299060519000079],[50.203546002000053,26.297982051000076],[50.203342989000078,26.297036223000077],[50.203151897000055,26.296122056000058],[50.203149264000047,26.296107715000062],[50.202977086000033,26.295170126000073],[50.202976677000038,26.295167900000024]]},"properties":{"OBJECTID":41614,"fclass":"Residential Road","Road_Name":"Prince Abdul Salam Street","maxspeed":20,"Shape_Length":0.0039700068911172805,"GlobalID":"{CCBABD30-5E03-4BC5-A045-27EC872614B0}","created_user":null,"created_date":null,"last_edited_user":"RASOO","last_edited_date":1769535551000,"VALIDATIONSTATUS":0}},{"type":"Feature","id":41617,"geometry":{"type":"LineString","coordinates":[[50.204336058000081,26.298962552000035],[50.204103511000028,26.29788260600003],[50.203975314000047,26.297236476000023],[50.203919309000071,26.296949697000059],[50.203801300000066,26.296302433000051],[50.203735508000079,26.296000321000065],[50.203547400000048,26.295078733000025]]},"properties":{"OBJECTID":41617,"fclass":"Residential Road","Road_Name":"Prince Mamdouh Street","maxspeed":20,"Shape_Length":0.0039633373977826115,"GlobalID":"{61CDBE78-95E7-4B5C-8277-1FDB47D09F2A}","created_user":null,"created_date":null,"last_edited_user":"RASOO","last_edited_date":1769535551000,"VALIDATIONSTATUS":0}},{"type":"Feature","id":41622,"geometry":{"type":"LineString","coordinates":[[50.208293171000037,26.297166696000033],[50.207654465000076,26.29727295400005],[50.207647903000066,26.297274328000071],[50.207099721000077,26.297389137000039],[50.207088534000036,26.297391480000044],[50.206520854000075,26.297480325000038],[50.205933658000049,26.297583662000079],[50.205376189000049,26.297660433000033],[50.20478629400003,26.297769952000067],[50.204700864000074,26.29778152800003],[50.20470074900004,26.297781548000046],[50.204103511000028,26.29788260600003],[50.203546002000053,26.297982051000076],[50.202981550000061,26.298064702000033],[50.202419244000055,26.298147694000079],[50.202398987000038,26.298150684000063],[50.201826487000062,26.298237817000029],[50.201244900000063,26.29833803300005],[50.200650000000053,26.298445333000075]]},"properties":{"OBJECTID":41622,"fclass":"Residential Road","Road_Name":"20th Street","maxspeed":20,"Shape_Length":0.0077506686292117509,"GlobalID":"{35F08ABE-CA60-4D75-9BE2-37B48F6C49EA}","created_user":null,"created_date":null,"last_edited_user":"RASOO","last_edited_date":1769535551000,"VALIDATIONSTATUS":1}},{"type":"Feature","id":41624,"geometry":{"type":"LineString","coordinates":[[50.202617085000043,26.299249471000053],[50.202419244000055,26.298147694000079],[50.202227174000029,26.297224824000068],[50.202021100000081,26.296279976000051],[50.201829983000039,26.295373082000026]]},"properties":{"OBJECTID":41624,"fclass":"Residential Road","Road_Name":"Prince Mashhour Street","maxspeed":20,"Shape_Length":0.003955916584103528,"GlobalID":"{BC7C5FE7-7DFA-490A-B169-09A83053D909}","created_user":null,"created_date":null,"last_edited_user":"RASOO","last_edited_date":1769535551000,"VALIDATIONSTATUS":0}},{"type":"Feature","id":41626,"geometry":{"type":"LineString","coordinates":[[50.208716407000054,26.298237500000027],[50.207893239000043,26.298367417000065],[50.207868459000053,26.298371426000074],[50.207314600000075,26.298461033000024],[50.207296432000078,26.298464434000039],[50.206733400000076,26.298569833000045],[50.206178500000078,26.298658633000059],[50.206168457000047,26.298660207000069],[50.20560990000007,26.298747733000027],[50.205589196000062,26.298751215000038],[50.205379200000039,26.298786533000055],[50.205010196000046,26.298848884000051],[50.204988600000036,26.298852533000058],[50.204920300000026,26.298863933000064],[50.20491263200006,26.298865227000078],[50.204336058000081,26.298962552000035],[50.204294700000048,26.298969533000047],[50.203755354000066,26.299060519000079],[50.203191161000063,26.299148023000043],[50.202617085000043,26.299249471000053],[50.202049708000061,26.299345209000023],[50.202015508000045,26.299350928000024],[50.201475400000049,26.299441233000039],[50.201456991000043,26.299446858000067],[50.201346722000039,26.299480553000024],[50.200953564000031,26.299543546000052],[50.200879907000058,26.299544592000075],[50.200760240000079,26.299540167000032],[50.200615239000058,26.299507165000023]]},"properties":{"OBJECTID":41626,"fclass":"Tertiary Road","Road_Name":"22nd Street","maxspeed":80,"Shape_Length":0.0082154867324291357,"GlobalID":"{BA55E60C-B0A9-44D0-BB36-6DA2E581ECA5}","created_user":null,"created_date":null,"last_edited_user":"RASOO","last_edited_date":1769535551000,"VALIDATIONSTATUS":0}},{"type":"Feature","id":41627,"geometry":{"type":"LineString","coordinates":[[50.201252547000081,26.29546524400007],[50.201451269000074,26.296386943000073],[50.201640033000047,26.297330860000045],[50.201826487000062,26.298237817000029],[50.202049708000061,26.299345209000023]]},"properties":{"OBJECTID":41627,"fclass":"Residential Road","Road_Name":"Prince Abdulmajid Street","maxspeed":20,"Shape_Length":0.0039610749127762298,"GlobalID":"{9FD41CB7-D0AE-4363-8405-D14A08F84D59}","created_user":null,"created_date":null,"last_edited_user":"RASOO","last_edited_date":1769535551000,"VALIDATIONSTATUS":0}},{"type":"Feature","id":41628,"geometry":{"type":"LineString","coordinates":[[50.201475400000049,26.299441233000039],[50.201244900000063,26.29833803300005],[50.201071271000046,26.297415279000063],[50.20106590000006,26.297386733000053],[50.200870874000032,26.296476743000028],[50.200691600000027,26.295557233000068]]},"properties":{"OBJECTID":41628,"fclass":"Residential Road","Road_Name":"Prince Sattam Street","maxspeed":20,"Shape_Length":0.0039624942937724903,"GlobalID":"{EB11A1D2-ECED-4139-A5DC-2E5B338A5616}","created_user":null,"created_date":null,"last_edited_user":"RASOO","last_edited_date":1769535551000,"VALIDATIONSTATUS":0}},{"type":"Feature","id":258770,"geometry":{"type":"LineString","coordinates":[[50.205365701000062,26.294791033000024],[50.205555533000052,26.29571338900007],[50.205744300000049,26.296636233000072],[50.205747237000026,26.296650914000054],[50.205933658000049,26.297583662000079],[50.20600335000006,26.297885093000048],[50.206168457000047,26.298660207000069],[50.206196670000054,26.298804613000073]]},"properties":{"OBJECTID":258770,"fclass":"Residential Road","Road_Name":"Prince Mashari Street","maxspeed":20,"Shape_Length":0.0040988297533447035,"GlobalID":"{B5A40B4B-842D-4F7C-AAD6-B4965A6C2C12}","created_user":null,"created_date":null,"last_edited_user":"RASOO","last_edited_date":1769535551000,"VALIDATIONSTATUS":0}},{"type":"Feature","id":258782,"geometry":{"type":"LineString","coordinates":[[50.205942811000057,26.294692644000065],[50.206132350000075,26.295620791000033],[50.206327200000032,26.296543733000078],[50.206329638000057,26.296555526000077],[50.206520854000075,26.297480325000038],[50.206582764000075,26.297794045000046],[50.206733400000076,26.298569833000045],[50.206760426000073,26.298709383000073]]},"properties":{"OBJECTID":258782,"fclass":"Residential Road","Road_Name":"Prince Methab Street","maxspeed":20,"Shape_Length":0.0040991818690600691,"GlobalID":"{824EDFA2-EB61-40F2-A034-5D22C7CAFD7E}","created_user":null,"created_date":null,"last_edited_user":"RASOO","last_edited_date":1769535551000,"VALIDATIONSTATUS":0}},{"type":"Feature","id":258797,"geometry":{"type":"LineString","coordinates":[[50.204800901000056,26.294869636000044],[50.20499071100005,26.295806341000059],[50.205118500000026,26.296415133000039],[50.205184400000064,26.296723233000023],[50.205189220000079,26.296746785000039],[50.205376189000049,26.297660433000033],[50.205589196000062,26.298751215000038],[50.205624948000036,26.298901190000038]]},"properties":{"OBJECTID":258797,"fclass":"Residential Road","Road_Name":"Prince Ahmad Street","maxspeed":20,"Shape_Length":0.0041150563469358834,"GlobalID":"{8F2D324A-4847-4F46-9337-E92E132892D1}","created_user":null,"created_date":null,"last_edited_user":"RASOO","last_edited_date":1769535551000,"VALIDATIONSTATUS":0}},{"type":"Feature","id":258803,"geometry":{"type":"LineString","coordinates":[[50.205189220000079,26.296746785000039],[50.205747237000026,26.296650914000054],[50.206329638000057,26.296555526000077],[50.206897572000059,26.296457990000079],[50.206897631000061,26.29645798100006],[50.207466655000076,26.296373466000034],[50.207473175000075,26.296372498000039],[50.208329152000033,26.296229726000035]]},"properties":{"OBJECTID":258803,"fclass":"Residential Road","Road_Name":"19th Street","maxspeed":20,"Shape_Length":0.0031823213833665357,"GlobalID":"{CA867D73-E877-4BDA-B63A-E9753F63E136}","created_user":null,"created_date":null,"last_edited_user":"RASOO","last_edited_date":1769535551000,"VALIDATIONSTATUS":1}},{"type":"Feature","id":258806,"geometry":{"type":"LineString","coordinates":[[50.20650450100004,26.294588733000069],[50.206692701000065,26.295517633000031],[50.206896601000039,26.296453233000022],[50.206897631000061,26.29645798100006],[50.207099721000077,26.297389137000039],[50.207179488000065,26.297832681000045],[50.207296432000078,26.298464434000039],[50.207328425000071,26.29861343500005]]},"properties":{"OBJECTID":258806,"fclass":"Residential Road","Road_Name":"Prince Abdul Rahman Street","maxspeed":20,"Shape_Length":0.0041085683864793875,"GlobalID":"{4635DDF1-8302-4770-BA7A-A02BDF1205FD}","created_user":null,"created_date":null,"last_edited_user":"RASOO","last_edited_date":1769535551000,"VALIDATIONSTATUS":0}},{"type":"Feature","id":258809,"geometry":{"type":"LineString","coordinates":[[50.207930680000061,26.295305342000063],[50.207275214000049,26.295434399000044],[50.206692701000065,26.295517633000031],[50.206132350000075,26.295620791000033],[50.205555533000052,26.29571338900007],[50.20499071100005,26.295806341000059],[50.204402400000049,26.295914633000052],[50.204306168000073,26.295915548000039],[50.203735508000079,26.296000321000065],[50.203167273000076,26.296104729000035],[50.203149264000047,26.296107715000062],[50.202591934000054,26.29620013400006],[50.202021100000081,26.296279976000051],[50.201451269000074,26.296386943000073],[50.200870874000032,26.296476743000028],[50.200271894000082,26.296563977000062]]},"properties":{"OBJECTID":258809,"fclass":"Residential Road","Road_Name":"17th Street","maxspeed":20,"Shape_Length":0.0077639396604477209,"GlobalID":"{4EF30567-29F7-4D76-A936-7F3DC1657FCE}","created_user":null,"created_date":null,"last_edited_user":"RASOO","last_edited_date":1769535551000,"VALIDATIONSTATUS":0}},{"type":"Feature","id":258813,"geometry":{"type":"LineString","coordinates":[[50.207084201000043,26.294492233000028],[50.207275214000049,26.295434399000044],[50.207290079000074,26.295504449000077],[50.207362190000026,26.295844258000045],[50.207466655000076,26.296373466000034],[50.207647903000066,26.297274328000071],[50.207868459000053,26.298371426000074],[50.207898927000031,26.298517065000055]]},"properties":{"OBJECTID":258813,"fclass":"Residential Road","Road_Name":"Prince Abdul Mohshin Street","maxspeed":20,"Shape_Length":0.004106494113313269,"GlobalID":"{F0E94AE5-B487-4EE0-B659-40DC496246BF}","created_user":null,"created_date":null,"last_edited_user":"RASOO","last_edited_date":1769535551000,"VALIDATIONSTATUS":0}},{"type":"Feature","id":258916,"geometry":{"type":"LineString","coordinates":[[50.207988601000068,26.294579333000058],[50.207860701000072,26.294434333000027],[50.20782180100008,26.294413733000056],[50.207780501000059,26.294397333000063],[50.207736901000033,26.294398533000049],[50.207706196000061,26.294402941000044],[50.207084201000043,26.294492233000028],[50.20650450100004,26.294588733000069],[50.205942811000057,26.294692644000065],[50.205932601000029,26.29469453300004],[50.205365701000062,26.294791033000024],[50.204839801000048,26.294863433000046],[50.204800901000056,26.294869636000044],[50.20421710100004,26.294962733000034],[50.204109601000027,26.29498383300006],[50.203547400000048,26.295078733000025],[50.202976677000038,26.295167900000024],[50.20294830000006,26.295172333000039],[50.202407441000048,26.295264258000032],[50.201829983000039,26.295373082000026],[50.201270300000033,26.295462333000046],[50.201252547000081,26.29546524400007],[50.200691600000027,26.295557233000068],[50.200086254000041,26.295651648000046],[50.199970017000055,26.295667931000025],[50.199854053000081,26.295659163000039]]},"properties":{"OBJECTID":258916,"fclass":"Tertiary Road","Road_Name":"16th Street","maxspeed":80,"Shape_Length":0.0083124014014043547,"GlobalID":"{B94F3B2D-0C9F-43CD-B5CA-6D0B674402CD}","created_user":null,"created_date":null,"last_edited_user":"RASOO","last_edited_date":1769535551000,"VALIDATIONSTATUS":0}},{"type":"Feature","id":258963,"geometry":{"type":"LineString","coordinates":[[50.204564679000043,26.297140876000071],[50.203975314000047,26.297236476000023]]},"properties":{"OBJECTID":258963,"fclass":"Residential Road","Road_Name":"19th Street","maxspeed":20,"Shape_Length":0.00059706822324697404,"GlobalID":"{30867BCE-487C-4C9F-8E2B-5BE5D8AEE9E6}","created_user":null,"created_date":null,"last_edited_user":"RASOO","last_edited_date":1769535551000,"VALIDATIONSTATUS":0}},{"type":"Feature","id":259017,"geometry":{"type":"LineString","coordinates":[[50.200464638000028,26.297513329000026],[50.201071271000046,26.297415279000063],[50.201640033000047,26.297330860000045],[50.202216123000028,26.297226656000078],[50.202227174000029,26.297224824000068],[50.202792351000028,26.297131140000033],[50.203342989000078,26.297036223000077],[50.203350850000049,26.297034868000026],[50.203919309000071,26.296949697000059]]},"properties":{"OBJECTID":259017,"fclass":"Residential Road","Road_Name":"19th Street","maxspeed":20,"Shape_Length":0.003500567714724033,"GlobalID":"{20FA0F9F-6B5D-4C3D-9385-209A83261D2C}","created_user":null,"created_date":null,"last_edited_user":"RASOO","last_edited_date":1769535551000,"VALIDATIONSTATUS":0}},{"type":"Feature","id":275493,"geometry":{"type":"LineString","coordinates":[[50.208743162000076,26.298374455000044],[50.208716407000054,26.298237500000027],[50.208329152000033,26.296229726000035],[50.207988601000068,26.294579333000058],[50.207897736000064,26.29410673600006]]},"properties":{"OBJECTID":275493,"fclass":"Major Road","Road_Name":"King Abdulaziz Road","maxspeed":100,"Shape_Length":0.0043507385633034463,"GlobalID":"{707C4A90-9D55-4807-80A7-1CF8B43F638F}","created_user":null,"created_date":null,"last_edited_user":"RASOO","last_edited_date":1769535551000,"VALIDATIONSTATUS":0}},{"type":"Feature","id":275500,"geometry":{"type":"LineString","coordinates":[[50.208086390000062,26.294076086000075],[50.208132801000033,26.294289733000028],[50.208146744000032,26.294361544000026],[50.208240103000037,26.294842380000034],[50.208370501000047,26.295486933000063],[50.208458901000029,26.295920733000059],[50.208515895000062,26.296217923000029],[50.208796801000062,26.297528933000024],[50.208910500000059,26.29804663300007],[50.20896440000007,26.298337083000035]]},"properties":{"OBJECTID":275500,"fclass":"Major Road","Road_Name":"King Abdulaziz Road","maxspeed":100,"Shape_Length":0.0043507436207831235,"GlobalID":"{94ECB513-6F1E-4BB6-BD93-A8DE79185B56}","created_user":null,"created_date":null,"last_edited_user":"RASOO","last_edited_date":1769535551000,"VALIDATIONSTATUS":0}},{"type":"Feature","id":1104168,"geometry":{"type":"LineString","coordinates":[[50.20465174800006,26.297112797000068],[50.204700986000034,26.297127884000076],[50.204738163000059,26.297126485000035],[50.204984239000055,26.297075822000068],[50.205031283000039,26.297067982000044],[50.20506113700003,26.297064363000061],[50.205086469000037,26.297076727000047],[50.20509700000008,26.29709123300006],[50.205110594000075,26.29711381900006],[50.205115419000037,26.297141261000036],[50.205112705000033,26.297175338000045],[50.205104562000031,26.29719252700005],[50.205082850000053,26.297204590000035],[50.204690465000056,26.297288038000033]]},"properties":{"OBJECTID":1104168,"fclass":"Service Road","Road_Name":"Private Road","maxspeed":20,"Shape_Length":0.00099724508477687769,"GlobalID":"{1439DA06-B72D-41D7-9328-709F2CF54705}","created_user":null,"created_date":null,"last_edited_user":"RASOO","last_edited_date":1769535551000,"VALIDATIONSTATUS":0}},{"type":"Feature","id":1104169,"geometry":{"type":"LineString","coordinates":[[50.20453481800007,26.296522999000047],[50.205118500000026,26.296415133000039]]},"properties":{"OBJECTID":1104169,"fclass":"Residential Road","Road_Name":"19th Street","maxspeed":20,"Shape_Length":0.0005935652879255018,"GlobalID":"{08C359A8-CBA5-45A4-8A81-D6F974349368}","created_user":null,"created_date":null,"last_edited_user":"RASOO","last_edited_date":1769535551000,"VALIDATIONSTATUS":0}},{"type":"Feature","id":1108128,"geometry":{"type":"LineString","coordinates":[[50.207493601000067,26.294300533000069],[50.207469101000072,26.294191033000061],[50.20746637600007,26.294176819000029]]},"properties":{"OBJECTID":1108128,"fclass":"Tertiary Road","Road_Name":"King Abdulaziz Road","maxspeed":20,"Shape_Length":0.00012668024846929768,"GlobalID":"{68C70B09-B33A-4ADE-B810-6F7749DF8DFA}","created_user":null,"created_date":null,"last_edited_user":"RASOO","last_edited_date":1769535551000,"VALIDATIONSTATUS":0}},{"type":"Feature","id":1108129,"geometry":{"type":"LineString","coordinates":[[50.207469101000072,26.294191033000061],[50.20720250100004,26.294229733000066],[50.207184124000037,26.29422267700005]]},"properties":{"OBJECTID":1108129,"fclass":"Tertiary Road","Road_Name":"King Abdulaziz Road","maxspeed":20,"Shape_Length":0.00028907927970896354,"GlobalID":"{82A64282-1E11-4803-8DE8-3F58E4087D6B}","created_user":null,"created_date":null,"last_edited_user":"RASOO","last_edited_date":1769535551000,"VALIDATIONSTATUS":0}},{"type":"Feature","id":1152381,"geometry":{"type":"LineString","coordinates":[[50.207290079000074,26.295504449000077],[50.207372406000047,26.295485826000061],[50.207398278000028,26.295484333000047],[50.207417682000028,26.295490801000028],[50.207436091000034,26.295503240000073],[50.207451306000053,26.295525592000047],[50.207494801000053,26.295769923000023],[50.207491816000072,26.295790322000073],[50.207471915000042,26.295811219000029],[50.20743559400006,26.295827140000029],[50.207362190000026,26.295844258000045]]},"properties":{"OBJECTID":1152381,"fclass":"Service Road","Road_Name":"Private Road","maxspeed":20,"Shape_Length":0.00059270863993689151,"GlobalID":"{5F4C5FEC-CF34-447A-9690-C76F43DB9083}","created_user":null,"created_date":null,"last_edited_user":"RASOO","last_edited_date":1769535551000,"VALIDATIONSTATUS":0}},{"type":"Feature","id":1564597,"geometry":{"type":"LineString","coordinates":[[50.200572745000045,26.295454939000024],[50.200411932000065,26.295405440000025],[50.200239623000073,26.295350948000078]]},"properties":{"OBJECTID":1564597,"fclass":"Tertiary Road","Road_Name":"Al Amir Humud Bin Abdulaziz Street","maxspeed":80,"Shape_Length":0.00034897878750897205,"GlobalID":"{083670B9-3CC1-48B9-AC00-EB715F075BA8}","created_user":null,"created_date":null,"last_edited_user":"RASOO","last_edited_date":1769535551000,"VALIDATIONSTATUS":0}},{"type":"Feature","id":1564600,"geometry":{"type":"LineString","coordinates":[[50.200571598000067,26.299286545000029],[50.20068565300005,26.299244341000076]]},"properties":{"OBJECTID":1564600,"fclass":"Tertiary Road","Road_Name":"22nd Street","maxspeed":80,"Shape_Length":0.00012161299533041802,"GlobalID":"{2A86B198-DE6C-4B29-936B-9665B4B0E8C2}","created_user":null,"created_date":null,"last_edited_user":"RASOO","last_edited_date":1769535551000,"VALIDATIONSTATUS":0}},{"type":"Feature","id":1781923,"geometry":{"type":"LineString","coordinates":[[50.208910500000059,26.29804663300007],[50.208978400000035,26.298108133000028],[50.209029400000077,26.298148233000063],[50.209086300000081,26.298164133000057],[50.209110599000041,26.298167851000073],[50.209113038000055,26.298168224000051]]},"properties":{"OBJECTID":1781923,"fclass":"Tertiary Road","Road_Name":"22nd Street","maxspeed":20,"Shape_Length":0.00024261727969807366,"GlobalID":"{AD967099-C0BD-47CF-8437-5DFF4EA2D53C}","created_user":null,"created_date":null,"last_edited_user":"RASOO","last_edited_date":1769535551000,"VALIDATIONSTATUS":0}},{"type":"Feature","id":1781924,"geometry":{"type":"LineString","coordinates":[[50.19983417800006,26.295558692000043],[50.199955871000043,26.295570315000077],[50.200063722000039,26.295549356000038],[50.200076563000039,26.295546861000048],[50.200572745000045,26.295454939000024],[50.200688009000032,26.295433724000077],[50.201231900000039,26.295338033000064],[50.201808752000034,26.295247226000072],[50.201828400000068,26.29524413300004],[50.202753400000063,26.295088533000069],[50.20277787200007,26.295084417000055],[50.204085201000055,26.294864533000066],[50.204196601000035,26.294844433000037],[50.204768501000046,26.294746433000057],[50.205306301000064,26.29464953300004],[50.205921701000079,26.294548533000068],[50.206484701000079,26.294455733000063],[50.207057201000055,26.294375133000074],[50.207493601000067,26.294300533000069],[50.207639447000076,26.294268311000053],[50.207709501000068,26.29425283300003],[50.207746201000077,26.294203133000053],[50.207766201000027,26.29414573300005],[50.207769347000067,26.294127595000077]]},"properties":{"OBJECTID":1781924,"fclass":"Tertiary Road","Road_Name":"16th Street","maxspeed":80,"Shape_Length":0.008128697221611577,"GlobalID":"{02F68E15-014E-4BE3-9A18-16494315C954}","created_user":null,"created_date":null,"last_edited_user":"RASOO","last_edited_date":1769535551000,"VALIDATIONSTATUS":0}},{"type":"Feature","id":1781926,"geometry":{"type":"LineString","coordinates":[[50.204942967000079,26.299016391000066],[50.20491263200006,26.298865227000078],[50.20470074900004,26.297781548000046],[50.204697500000066,26.297764933000053],[50.204564679000043,26.297140876000071],[50.204306168000073,26.295915548000039],[50.204109601000027,26.29498383300006],[50.204085201000055,26.294864533000066],[50.204058154000052,26.294730552000033]]},"properties":{"OBJECTID":1781926,"fclass":"Tertiary Road","Road_Name":"Prince Miqren Bin Abdulaziz Street","maxspeed":80,"Shape_Length":0.0043763193475592124,"GlobalID":"{AC1B68F3-3C8E-4FD6-AE1A-EB6B26A4D308}","created_user":null,"created_date":null,"last_edited_user":"RASOO","last_edited_date":1769535551000,"VALIDATIONSTATUS":0}},{"type":"Feature","id":1781927,"geometry":{"type":"LineString","coordinates":[[50.200795988000039,26.299716907000061],[50.200778900000046,26.299635833000025],[50.200760240000079,26.299540167000032],[50.200759337000079,26.299535537000054],[50.200743952000039,26.299456660000033],[50.200681900000063,26.299222633000056],[50.200636900000063,26.298961833000078],[50.20034140000007,26.297500233000051],[50.200231600000052,26.296957033000069],[50.199970017000055,26.295667931000025],[50.199955871000043,26.295570315000077],[50.199922374000039,26.295402491000061]]},"properties":{"OBJECTID":1781927,"fclass":"Tertiary Road","Road_Name":"Al Amir Humud Bin Abdulaziz Street","maxspeed":80,"Shape_Length":0.0044026750854131548,"GlobalID":"{2050001D-3DDF-4BDD-87C0-FCD4CC3FF992}","created_user":null,"created_date":null,"last_edited_user":"RASOO","last_edited_date":1769535551000,"VALIDATIONSTATUS":0}},{"type":"Feature","id":1781932,"geometry":{"type":"LineString","coordinates":[[50.208689581000044,26.296185696000066],[50.208515895000062,26.296217923000029]]},"properties":{"OBJECTID":1781932,"fclass":"Residential Road","Road_Name":"19th Street","maxspeed":20,"Shape_Length":0.00017665051971753795,"GlobalID":"{3C9ADDB1-FF26-4857-8D6D-77D9132E9EF6}","created_user":null,"created_date":null,"last_edited_user":"RASOO","last_edited_date":1769535551000,"VALIDATIONSTATUS":0}},{"type":"Feature","id":1781934,"geometry":{"type":"LineString","coordinates":[[50.201378438000063,26.299420958000042],[50.201377389000072,26.299421036000069],[50.201217420000035,26.299432927000055],[50.200959474000058,26.299464091000061],[50.20086493000008,26.299472857000069],[50.200743952000039,26.299456660000033],[50.20059673600008,26.299413623000078]]},"properties":{"OBJECTID":1781934,"fclass":"Tertiary Road","Road_Name":"22nd Street","maxspeed":80,"Shape_Length":0.00079166867810207843,"GlobalID":"{65318D62-7B04-4398-AD55-4BC9A9EBBE33}","created_user":null,"created_date":null,"last_edited_user":"RASOO","last_edited_date":1769535551000,"VALIDATIONSTATUS":0}},{"type":"Feature","id":1781935,"geometry":{"type":"LineString","coordinates":[[50.200210912000045,26.297463180000022],[50.20034140000007,26.297500233000051]]},"properties":{"OBJECTID":1781935,"fclass":"Internal Road","Road_Name":"19th Street","maxspeed":80,"Shape_Length":0.00013564675802083155,"GlobalID":"{365AE418-3A41-4636-B9E8-18DB2B5839A2}","created_user":null,"created_date":null,"last_edited_user":"RASOO","last_edited_date":1769535551000,"VALIDATIONSTATUS":0}},{"type":"Feature","id":1781936,"geometry":{"type":"LineString","coordinates":[[50.205921701000079,26.294548533000068],[50.205893819000039,26.294432312000026]]},"properties":{"OBJECTID":1781936,"fclass":"Residential Road","Road_Name":"Prince Methab Street","maxspeed":20,"Shape_Length":0.00011951872981637688,"GlobalID":"{4DB01226-D9DE-47AA-9423-11BE3244516B}","created_user":null,"created_date":null,"last_edited_user":"RASOO","last_edited_date":1769535551000,"VALIDATIONSTATUS":0}},{"type":"Feature","id":1781937,"geometry":{"type":"LineString","coordinates":[[50.201231900000039,26.295338033000064],[50.201200355000026,26.295194858000059]]},"properties":{"OBJECTID":1781937,"fclass":"Residential Road","Road_Name":"Prince Abdulmajid Street","maxspeed":20,"Shape_Length":0.00014660889349660155,"GlobalID":"{13215658-20B3-416D-A2E5-500FE071E886}","created_user":null,"created_date":null,"last_edited_user":"RASOO","last_edited_date":1769535551000,"VALIDATIONSTATUS":0}},{"type":"Feature","id":1781938,"geometry":{"type":"LineString","coordinates":[[50.201808752000034,26.295247226000072],[50.201783447000025,26.295100123000054]]},"properties":{"OBJECTID":1781938,"fclass":"Residential Road","Road_Name":"Prince Mashhour Street","maxspeed":20,"Shape_Length":0.00014926364473499777,"GlobalID":"{C4EF26DC-17FF-4C9F-81D4-71377ED7E863}","created_user":null,"created_date":null,"last_edited_user":"RASOO","last_edited_date":1769535551000,"VALIDATIONSTATUS":0}},{"type":"Feature","id":1781939,"geometry":{"type":"LineString","coordinates":[[50.205306301000064,26.29464953300004],[50.205281506000063,26.294531794000079]]},"properties":{"OBJECTID":1781939,"fclass":"Residential Road","Road_Name":"Prince Mashari Street","maxspeed":20,"Shape_Length":0.00012032150321921711,"GlobalID":"{E205AF92-5114-4535-B9C4-9D19CA3699E9}","created_user":null,"created_date":null,"last_edited_user":"RASOO","last_edited_date":1769535551000,"VALIDATIONSTATUS":0}},{"type":"Feature","id":1781940,"geometry":{"type":"LineString","coordinates":[[50.206484701000079,26.294455733000063],[50.206459801000051,26.294340357000067]]},"properties":{"OBJECTID":1781940,"fclass":"Residential Road","Road_Name":"Prince Abdul Rahman Street","maxspeed":20,"Shape_Length":0.00011803233191208434,"GlobalID":"{68943BE1-BA8E-4FC2-8DE2-F20A22EBD694}","created_user":null,"created_date":null,"last_edited_user":"RASOO","last_edited_date":1769535551000,"VALIDATIONSTATUS":0}},{"type":"Feature","id":1781941,"geometry":{"type":"LineString","coordinates":[[50.207057201000055,26.294375133000074],[50.207028354000045,26.294247984000037]]},"properties":{"OBJECTID":1781941,"fclass":"Residential Road","Road_Name":"Prince Abdul Mohshin Street","maxspeed":20,"Shape_Length":0.00013038028079356918,"GlobalID":"{4F5E818C-0D6A-422B-ABE8-E2F1834EF1E7}","created_user":null,"created_date":null,"last_edited_user":"RASOO","last_edited_date":1769535551000,"VALIDATIONSTATUS":0}},{"type":"Feature","id":1781943,"geometry":{"type":"LineString","coordinates":[[50.204741131000048,26.294619589000035],[50.204768501000046,26.294746433000057]]},"properties":{"OBJECTID":1781943,"fclass":"Residential Road","Road_Name":"Prince Ahmad Street","maxspeed":20,"Shape_Length":0.00012976331238604788,"GlobalID":"{06211856-429C-4B73-B85D-8BAD74898632}","created_user":null,"created_date":null,"last_edited_user":"RASOO","last_edited_date":1769535551000,"VALIDATIONSTATUS":0}},{"type":"Feature","id":1781945,"geometry":{"type":"LineString","coordinates":[[50.204169174000072,26.294712515000072],[50.204196601000035,26.294844433000037],[50.20421710100004,26.294962733000034],[50.204402400000049,26.295914633000052],[50.20453481800007,26.296522999000047],[50.20465174800006,26.297112797000068],[50.204652665000026,26.297117424000078],[50.204690465000056,26.297288038000033],[50.20478629400003,26.297769952000067],[50.205010196000046,26.298848884000051],[50.205040636000035,26.29899989300003]]},"properties":{"OBJECTID":1781945,"fclass":"Tertiary Road","Road_Name":"Prince Miqren Bin Abdulaziz Street","maxspeed":80,"Shape_Length":0.0043752408796323625,"GlobalID":"{8C19FB7C-59D7-43D2-933E-8C28073C603D}","created_user":null,"created_date":null,"last_edited_user":"RASOO","last_edited_date":1769535551000,"VALIDATIONSTATUS":0}},{"type":"Feature","id":1781946,"geometry":{"type":"LineString","coordinates":[[50.200688009000032,26.295433724000077],[50.20065895700003,26.295282819000079]]},"properties":{"OBJECTID":1781946,"fclass":"Residential Road","Road_Name":"Prince Sattam Street","maxspeed":20,"Shape_Length":0.00015367608053488692,"GlobalID":"{19EC1C9B-CF4E-4A33-B00D-6B3626509878}","created_user":null,"created_date":null,"last_edited_user":"RASOO","last_edited_date":1769535551000,"VALIDATIONSTATUS":0}},{"type":"Feature","id":1781951,"geometry":{"type":"LineString","coordinates":[[50.200030608000077,26.295384907000027],[50.200063722000039,26.295549356000038],[50.200086254000041,26.295651648000046],[50.200271894000082,26.296563977000062],[50.200459900000055,26.29748793300007],[50.200464638000028,26.297513329000026],[50.200577700000053,26.298119333000045],[50.200650000000053,26.298445333000075],[50.200799588000052,26.299160473000029],[50.20086493000008,26.299472857000069],[50.200878500000044,26.299537733000022],[50.200879907000058,26.299544592000075],[50.20089530000007,26.299619633000077],[50.200911255000051,26.299697436000031]]},"properties":{"OBJECTID":1781951,"fclass":"Tertiary Road","Road_Name":"Al Amir Humud Bin Abdulaziz Street","maxspeed":80,"Shape_Length":0.0044016936637092914,"GlobalID":"{F39E9DFA-4479-416B-BBAA-A371F6BAD46D}","created_user":null,"created_date":null,"last_edited_user":"RASOO","last_edited_date":1769535551000,"VALIDATIONSTATUS":0}},{"type":"Feature","id":1781952,"geometry":{"type":"LineString","coordinates":[[50.208266509000055,26.29420497600006],[50.208231340000054,26.294238031000077],[50.208201820000056,26.294272582000076],[50.208176896000055,26.294312494000053],[50.208146744000032,26.294361544000026]]},"properties":{"OBJECTID":1781952,"fclass":"Residential Road","Road_Name":"16th Street","maxspeed":20,"Shape_Length":0.00019834073848904631,"GlobalID":"{5F83FDB0-7BFA-42EA-A2C7-59AC9A1B2582}","created_user":null,"created_date":null,"last_edited_user":"RASOO","last_edited_date":1769535551000,"VALIDATIONSTATUS":0}},{"type":"Feature","id":1781955,"geometry":{"type":"LineString","coordinates":[[50.208796801000062,26.297528933000024],[50.208970101000034,26.297499031000029]]},"properties":{"OBJECTID":1781955,"fclass":"Residential Road","Road_Name":"21st Street","maxspeed":20,"Shape_Length":0.00017586079606854392,"GlobalID":"{94EC44C5-67AC-4518-AD6D-0F72ADC81FF5}","created_user":null,"created_date":null,"last_edited_user":"RASOO","last_edited_date":1769535551000,"VALIDATIONSTATUS":0}},{"type":"Feature","id":1781961,"geometry":{"type":"LineString","coordinates":[[50.20277787200007,26.295084417000055],[50.20274783800005,26.294943439000065]]},"properties":{"OBJECTID":1781961,"fclass":"Residential Road","Road_Name":"Prince Abdul Salam Street","maxspeed":20,"Shape_Length":0.00014414172761018331,"GlobalID":"{98178EE6-0F84-4F35-A078-2B15258CEB52}","created_user":null,"created_date":null,"last_edited_user":"RASOO","last_edited_date":1769535551000,"VALIDATIONSTATUS":0}},{"type":"Feature","id":1781996,"geometry":{"type":"LineString","coordinates":[[50.200799588000052,26.299160473000029],[50.200842732000069,26.299218838000058],[50.200898208000069,26.299258536000025],[50.200960810000026,26.299293654000053],[50.201052931000049,26.299329281000041],[50.201163375000078,26.299368471000037],[50.201307918000055,26.299398500000052],[50.201377389000072,26.299421036000069],[50.201456991000043,26.299446858000067]]},"properties":{"OBJECTID":1781996,"fclass":"Tertiary Road","Road_Name":"Al Amir Humud Bin Abdulaziz Street","maxspeed":80,"Shape_Length":0.00073288716112921424,"GlobalID":"{DA6FA6C5-7779-4038-984A-3707B0C8C198}","created_user":null,"created_date":null,"last_edited_user":"RASOO","last_edited_date":1769535551000,"VALIDATIONSTATUS":0}},{"type":"Feature","id":1781999,"geometry":{"type":"LineString","coordinates":[[50.208240103000037,26.294842380000034],[50.208396467000057,26.294813411000064]]},"properties":{"OBJECTID":1781999,"fclass":"Residential Road","Road_Name":"17th Street","maxspeed":20,"Shape_Length":0.00015902485171042797,"GlobalID":"{FC53BC69-6083-484A-A412-787EA7FF520D}","created_user":null,"created_date":null,"last_edited_user":"RASOO","last_edited_date":1769535551000,"VALIDATIONSTATUS":0}},{"type":"Feature","id":1782000,"geometry":{"type":"LineString","coordinates":[[50.207639447000076,26.294268311000053],[50.207686455000044,26.294288634000054],[50.207720650000056,26.294321239000055],[50.207734965000043,26.29435145900004],[50.207730193000032,26.294370545000049],[50.207706196000061,26.294402941000044]]},"properties":{"OBJECTID":1782000,"fclass":"Tertiary Road","Road_Name":"16th Street","maxspeed":20,"Shape_Length":0.00019188940825481414,"GlobalID":"{A85F79BD-2003-4ED9-86A6-8C87EC21DC4C}","created_user":null,"created_date":null,"last_edited_user":"RASOO","last_edited_date":1769535551000,"VALIDATIONSTATUS":0}}]}