{"type":"FeatureCollection","crs":{"type":"name","properties":{"name":"EPSG:9333"}},"features":[{"type":"Feature","id":2,"geometry":{"type":"Point","coordinates":[50.200220409000053,26.295565404000058]},"properties":{"OBJECTID":2,"RoadName":"16th Street"}},{"type":"Feature","id":3,"geometry":{"type":"Point","coordinates":[50.200587555000027,26.295514826000044]},"properties":{"OBJECTID":3,"RoadName":"16th Street"}},{"type":"Feature","id":4,"geometry":{"type":"Point","coordinates":[50.201071163000051,26.295438663000027]},"properties":{"OBJECTID":4,"RoadName":"16th Street"}},{"type":"Feature","id":5,"geometry":{"type":"Point","coordinates":[50.201564678000068,26.295360642000048]},"properties":{"OBJECTID":5,"RoadName":"16th Street"}},{"type":"Feature","id":6,"geometry":{"type":"Point","coordinates":[50.202118877000032,26.295267759000069]},"properties":{"OBJECTID":6,"RoadName":"16th Street"}},{"type":"Feature","id":7,"geometry":{"type":"Point","coordinates":[50.202556662000063,26.295189119000042]},"properties":{"OBJECTID":7,"RoadName":"16th Street"}},{"type":"Feature","id":8,"geometry":{"type":"Point","coordinates":[50.203050178000069,26.295102428000064]},"properties":{"OBJECTID":8,"RoadName":"16th Street"}},{"type":"Feature","id":9,"geometry":{"type":"Point","coordinates":[50.203535024000075,26.295025026000076]},"properties":{"OBJECTID":9,"RoadName":"16th Street"}},{"type":"Feature","id":10,"geometry":{"type":"Point","coordinates":[50.203952205000064,26.294969002000073]},"properties":{"OBJECTID":10,"RoadName":"16th Street"}},{"type":"Feature","id":11,"geometry":{"type":"Point","coordinates":[50.204567877000045,26.29484545400004]},"properties":{"OBJECTID":11,"RoadName":"16th Street"}},{"type":"Feature","id":12,"geometry":{"type":"Point","coordinates":[50.205412488000036,26.294717276000029]},"properties":{"OBJECTID":12,"RoadName":"16th Street"}},{"type":"Feature","id":13,"geometry":{"type":"Point","coordinates":[50.205900430000042,26.294634920000078]},"properties":{"OBJECTID":13,"RoadName":"16th Street"}},{"type":"Feature","id":14,"geometry":{"type":"Point","coordinates":[50.20640942600005,26.294548849000023]},"properties":{"OBJECTID":14,"RoadName":"16th Street"}},{"type":"Feature","id":15,"geometry":{"type":"Point","coordinates":[50.207407603000036,26.294390949000046]},"properties":{"OBJECTID":15,"RoadName":"16th Street"}},{"type":"Feature","id":16,"geometry":{"type":"Point","coordinates":[50.206902322000076,26.294467113000053]},"properties":{"OBJECTID":16,"RoadName":"16th Street"}},{"type":"Feature","id":17,"geometry":{"type":"Point","coordinates":[50.207678200000032,26.294347604000052]},"properties":{"OBJECTID":17,"RoadName":"16th Street"}},{"type":"Feature","id":18,"geometry":{"type":"Point","coordinates":[50.208052826000028,26.294375469000045]},"properties":{"OBJECTID":18,"RoadName":"King Abdulaziz Road"}},{"type":"Feature","id":19,"geometry":{"type":"Point","coordinates":[50.208140755000045,26.294812635000028]},"properties":{"OBJECTID":19,"RoadName":"King Abdulaziz Road"}},{"type":"Feature","id":20,"geometry":{"type":"Point","coordinates":[50.208232399000053,26.295255994000058]},"properties":{"OBJECTID":20,"RoadName":"King Abdulaziz Road"}},{"type":"Feature","id":21,"geometry":{"type":"Point","coordinates":[50.208321566000052,26.295704307000051]},"properties":{"OBJECTID":21,"RoadName":"King Abdulaziz Road"}},{"type":"Feature","id":22,"geometry":{"type":"Point","coordinates":[50.20841568700007,26.296148285000072]},"properties":{"OBJECTID":22,"RoadName":"King Abdulaziz Road"}},{"type":"Feature","id":23,"geometry":{"type":"Point","coordinates":[50.20850299600005,26.296591644000046]},"properties":{"OBJECTID":23,"RoadName":"King Abdulaziz Road"}},{"type":"Feature","id":24,"geometry":{"type":"Point","coordinates":[50.208592163000048,26.297038099000076]},"properties":{"OBJECTID":24,"RoadName":"King Abdulaziz Road"}},{"type":"Feature","id":25,"geometry":{"type":"Point","coordinates":[50.208680092000066,26.29747278800005]},"properties":{"OBJECTID":25,"RoadName":"King Abdulaziz Road"}},{"type":"Feature","id":26,"geometry":{"type":"Point","coordinates":[50.208771117000026,26.297913670000071]},"properties":{"OBJECTID":26,"RoadName":"King Abdulaziz Road"}},{"type":"Feature","id":27,"geometry":{"type":"Point","coordinates":[50.200984472000073,26.299592985000061]},"properties":{"OBJECTID":27,"RoadName":"22nd Street"}},{"type":"Feature","id":28,"geometry":{"type":"Point","coordinates":[50.200993141000026,26.299497625000072]},"properties":{"OBJECTID":28,"RoadName":"22nd Street"}},{"type":"Feature","id":29,"geometry":{"type":"Point","coordinates":[50.201435262000075,26.299514964000025]},"properties":{"OBJECTID":29,"RoadName":"22nd Street"}},{"type":"Feature","id":30,"geometry":{"type":"Point","coordinates":[50.201872428000058,26.299445611000067]},"properties":{"OBJECTID":30,"RoadName":"22nd Street"}},{"type":"Feature","id":31,"geometry":{"type":"Point","coordinates":[50.202208663000079,26.299383071000022]},"properties":{"OBJECTID":31,"RoadName":"22nd Street"}},{"type":"Feature","id":32,"geometry":{"type":"Point","coordinates":[50.202524463000032,26.299331676000065]},"properties":{"OBJECTID":32,"RoadName":"22nd Street"}},{"type":"Feature","id":33,"geometry":{"type":"Point","coordinates":[50.202839644000051,26.299279042000023]},"properties":{"OBJECTID":33,"RoadName":"22nd Street"}},{"type":"Feature","id":34,"geometry":{"type":"Point","coordinates":[50.203142782000043,26.299223228000074]},"properties":{"OBJECTID":34,"RoadName":"22nd Street"}},{"type":"Feature","id":35,"geometry":{"type":"Point","coordinates":[50.203795095000032,26.299116808000065]},"properties":{"OBJECTID":35,"RoadName":"22nd Street"}},{"type":"Feature","id":36,"geometry":{"type":"Point","coordinates":[50.203472483000041,26.299168202000033]},"properties":{"OBJECTID":36,"RoadName":"22nd Street"}},{"type":"Feature","id":37,"geometry":{"type":"Point","coordinates":[50.20327123800007,26.299201640000035]},"properties":{"OBJECTID":37,"RoadName":"22nd Street"}},{"type":"Feature","id":38,"geometry":{"type":"Point","coordinates":[50.204284895000058,26.299038167000049]},"properties":{"OBJECTID":38,"RoadName":"22nd Street"}},{"type":"Feature","id":39,"geometry":{"type":"Point","coordinates":[50.20473630400005,26.298962003000042]},"properties":{"OBJECTID":39,"RoadName":"22nd Street"}},{"type":"Feature","id":40,"geometry":{"type":"Point","coordinates":[50.206810678000068,26.29862453100003]},"properties":{"OBJECTID":40,"RoadName":"22nd Street"}},{"type":"Feature","id":42,"geometry":{"type":"Point","coordinates":[50.207587175000072,26.298493257000075]},"properties":{"OBJECTID":42,"RoadName":"22nd Street"}},{"type":"Feature","id":43,"geometry":{"type":"Point","coordinates":[50.207238557000039,26.298550844000033]},"properties":{"OBJECTID":43,"RoadName":"22nd Street"}},{"type":"Feature","id":44,"geometry":{"type":"Point","coordinates":[50.208032392000064,26.298416474000078]},"properties":{"OBJECTID":44,"RoadName":"22nd Street"}},{"type":"Feature","id":48,"geometry":{"type":"Point","coordinates":[50.20905348000008,26.298106247000078]},"properties":{"OBJECTID":48,"RoadName":"King Abdulaziz Road"}},{"type":"Feature","id":49,"geometry":{"type":"Point","coordinates":[50.208969266000054,26.29769880200007]},"properties":{"OBJECTID":49,"RoadName":"King Abdulaziz Road"}},{"type":"Feature","id":50,"geometry":{"type":"Point","coordinates":[50.208671423000055,26.296249836000072]},"properties":{"OBJECTID":50,"RoadName":"King Abdulaziz Road"}},{"type":"Feature","id":51,"geometry":{"type":"Point","coordinates":[50.207403268000064,26.294250387000034]},"properties":{"OBJECTID":51,"RoadName":"16th Street"}},{"type":"Feature","id":52,"geometry":{"type":"Point","coordinates":[50.207300478000036,26.294264010000063]},"properties":{"OBJECTID":52,"RoadName":"16th Street"}},{"type":"Feature","id":53,"geometry":{"type":"Point","coordinates":[50.206421191000061,26.294402714000057]},"properties":{"OBJECTID":53,"RoadName":"Prince Abdul Rahman Street"}},{"type":"Feature","id":54,"geometry":{"type":"Point","coordinates":[50.205933249000054,26.294489404000046]},"properties":{"OBJECTID":54,"RoadName":"Al Amir Humud Bin Abdulaziz Street"}},{"type":"Feature","id":55,"geometry":{"type":"Point","coordinates":[50.205849035000028,26.294502408000028]},"properties":{"OBJECTID":55,"RoadName":"Al Amir Humud Bin Abdulaziz Street"}},{"type":"Feature","id":56,"geometry":{"type":"Point","coordinates":[50.203112252000039,26.295610711000052]},"properties":{"OBJECTID":56,"RoadName":"Prince Abdul Salam Street"}},{"type":"Feature","id":57,"geometry":{"type":"Point","coordinates":[50.203166779000071,26.295933542000057]},"properties":{"OBJECTID":57,"RoadName":"Prince Abdul Salam Street"}},{"type":"Feature","id":58,"geometry":{"type":"Point","coordinates":[50.199987398000076,26.29544480800007]},"properties":{"OBJECTID":58,"RoadName":"Al Amir Humud Bin Abdulaziz Street"}},{"type":"Feature","id":59,"geometry":{"type":"Point","coordinates":[50.20006378800008,26.295835816000078]},"properties":{"OBJECTID":59,"RoadName":"Al Amir Humud Bin Abdulaziz Street"}},{"type":"Feature","id":60,"geometry":{"type":"Point","coordinates":[50.200131889000033,26.296190677000027]},"properties":{"OBJECTID":60,"RoadName":"Al Amir Humud Bin Abdulaziz Street"}},{"type":"Feature","id":61,"geometry":{"type":"Point","coordinates":[50.200213145000077,26.296550599000057]},"properties":{"OBJECTID":61,"RoadName":"Al Amir Humud Bin Abdulaziz Street"}},{"type":"Feature","id":62,"geometry":{"type":"Point","coordinates":[50.200287856000045,26.296912702000043]},"properties":{"OBJECTID":62,"RoadName":"Al Amir Humud Bin Abdulaziz Street"}},{"type":"Feature","id":63,"geometry":{"type":"Point","coordinates":[50.200355477000073,26.297274805000029]},"properties":{"OBJECTID":63,"RoadName":"Al Amir Humud Bin Abdulaziz Street"}},{"type":"Feature","id":64,"geometry":{"type":"Point","coordinates":[50.200433460000056,26.297634727000059]},"properties":{"OBJECTID":64,"RoadName":"Al Amir Humud Bin Abdulaziz Street"}},{"type":"Feature","id":65,"geometry":{"type":"Point","coordinates":[50.20050980700006,26.29799846700007]},"properties":{"OBJECTID":65,"RoadName":"Al Amir Humud Bin Abdulaziz Street"}},{"type":"Feature","id":66,"geometry":{"type":"Point","coordinates":[50.200584519000074,26.298358934000078]},"properties":{"OBJECTID":66,"RoadName":"Al Amir Humud Bin Abdulaziz Street"}},{"type":"Feature","id":67,"geometry":{"type":"Point","coordinates":[50.20065541200006,26.298720492000029]},"properties":{"OBJECTID":67,"RoadName":"Al Amir Humud Bin Abdulaziz Street"}},{"type":"Feature","id":68,"geometry":{"type":"Point","coordinates":[50.200723034000077,26.299043876000042]},"properties":{"OBJECTID":68,"RoadName":"Al Amir Humud Bin Abdulaziz Street"}},{"type":"Feature","id":69,"geometry":{"type":"Point","coordinates":[50.200772934000042,26.297506261000024]},"properties":{"OBJECTID":69,"RoadName":"19th Street"}},{"type":"Feature","id":71,"geometry":{"type":"Point","coordinates":[50.201332640000032,26.297428361000073]},"properties":{"OBJECTID":71,"RoadName":"19th Street"}},{"type":"Feature","id":72,"geometry":{"type":"Point","coordinates":[50.201923735000037,26.297324786000047]},"properties":{"OBJECTID":72,"RoadName":"19th Street"}},{"type":"Feature","id":73,"geometry":{"type":"Point","coordinates":[50.202227294000068,26.297091960000046]},"properties":{"OBJECTID":73,"RoadName":"Prince Mashhour Street"}},{"type":"Feature","id":74,"geometry":{"type":"Point","coordinates":[50.202286860000072,26.297387305000029]},"properties":{"OBJECTID":74,"RoadName":"Prince Mashhour Street"}},{"type":"Feature","id":75,"geometry":{"type":"Point","coordinates":[50.200782464000042,26.299326973000063]},"properties":{"OBJECTID":75,"RoadName":"Al Amir Humud Bin Abdulaziz Street"}},{"type":"Feature","id":76,"geometry":{"type":"Point","coordinates":[50.201010646000043,26.299415623000073]},"properties":{"OBJECTID":76,"RoadName":"Al Amir Humud Bin Abdulaziz Street"}},{"type":"Feature","id":77,"geometry":{"type":"Point","coordinates":[50.208363137000049,26.298362810000071]},"properties":{"OBJECTID":77,"RoadName":"22nd Street"}},{"type":"Feature","id":78,"geometry":{"type":"Point","coordinates":[50.208531508000078,26.298343352000074]},"properties":{"OBJECTID":78,"RoadName":"22nd Street"}},{"type":"Feature","id":79,"geometry":{"type":"Point","coordinates":[50.208573426000044,26.298164021000048]},"properties":{"OBJECTID":79,"RoadName":"King Abdulaziz Road"}},{"type":"Feature","id":80,"geometry":{"type":"Point","coordinates":[50.20723655900008,26.298403711000049]},"properties":{"OBJECTID":80,"RoadName":"22nd Street"}},{"type":"Feature","id":81,"geometry":{"type":"Point","coordinates":[50.207847525000034,26.298427215000061]},"properties":{"OBJECTID":81,"RoadName":"22nd Street"}},{"type":"Feature","id":82,"geometry":{"type":"Point","coordinates":[50.206663200000037,26.298424617000023]},"properties":{"OBJECTID":82,"RoadName":"Prince Methab Street"}},{"type":"Feature","id":83,"geometry":{"type":"Point","coordinates":[50.206726953000043,26.298695879000036]},"properties":{"OBJECTID":83,"RoadName":"Prince Methab Street"}},{"type":"Feature","id":84,"geometry":{"type":"Point","coordinates":[50.206247329000064,26.29878212400007]},"properties":{"OBJECTID":84,"RoadName":"Prince Mashari Street"}},{"type":"Feature","id":85,"geometry":{"type":"Point","coordinates":[50.206110205000073,26.298725041000068]},"properties":{"OBJECTID":85,"RoadName":"22nd Street"}},{"type":"Feature","id":86,"geometry":{"type":"Point","coordinates":[50.205687664000038,26.298798877000024]},"properties":{"OBJECTID":86,"RoadName":"22nd Street"}},{"type":"Feature","id":87,"geometry":{"type":"Point","coordinates":[50.205677736000041,26.29887457500007]},"properties":{"OBJECTID":87,"RoadName":"Prince Ahmad Street"}},{"type":"Feature","id":88,"geometry":{"type":"Point","coordinates":[50.205596454000045,26.298562478000065]},"properties":{"OBJECTID":88,"RoadName":"Prince Ahmad Street"}},{"type":"Feature","id":89,"geometry":{"type":"Point","coordinates":[50.204936273000044,26.298718836000035]},"properties":{"OBJECTID":89,"RoadName":"Prince Miqren Bin Abdulaziz Street"}},{"type":"Feature","id":90,"geometry":{"type":"Point","coordinates":[50.204341241000066,26.298755444000051]},"properties":{"OBJECTID":90,"RoadName":"Prince MamdouhStreet"}},{"type":"Feature","id":93,"geometry":{"type":"Point","coordinates":[50.20263370300006,26.299029072000053]},"properties":{"OBJECTID":93,"RoadName":"Prince Mashhour Street"}},{"type":"Feature","id":94,"geometry":{"type":"Point","coordinates":[50.202106981000043,26.299238326000022]},"properties":{"OBJECTID":94,"RoadName":"Prince Abdulmajid Street"}},{"type":"Feature","id":95,"geometry":{"type":"Point","coordinates":[50.201478017000056,26.299183220000032]},"properties":{"OBJECTID":95,"RoadName":"Prince Sattam Street"}},{"type":"Feature","id":96,"geometry":{"type":"Point","coordinates":[50.204820552000058,26.298172624000074]},"properties":{"OBJECTID":96,"RoadName":"Prince Miqren Bin Abdulaziz Street"}},{"type":"Feature","id":97,"geometry":{"type":"Point","coordinates":[50.204997768000055,26.29769221600003]},"properties":{"OBJECTID":97,"RoadName":"20th Street"}},{"type":"Feature","id":98,"geometry":{"type":"Point","coordinates":[50.204709069000046,26.297612064000077]},"properties":{"OBJECTID":98,"RoadName":"Prince Miqren Bin Abdulaziz Street"}},{"type":"Feature","id":99,"geometry":{"type":"Point","coordinates":[50.204732175000061,26.297221080000043]},"properties":{"OBJECTID":99,"RoadName":"Prince Miqren Bin Abdulaziz Street"}},{"type":"Feature","id":100,"geometry":{"type":"Point","coordinates":[50.204817608000042,26.297177566000073]},"properties":{"OBJECTID":100,"RoadName":"Prince Miqren Bin Abdulaziz Street"}},{"type":"Feature","id":101,"geometry":{"type":"Point","coordinates":[50.204589584000075,26.297047403000079]},"properties":{"OBJECTID":101,"RoadName":"Prince Miqren Bin Abdulaziz Street"}},{"type":"Feature","id":102,"geometry":{"type":"Point","coordinates":[50.204284957000027,26.297228401000041]},"properties":{"OBJECTID":102,"RoadName":"19th Street"}},{"type":"Feature","id":103,"geometry":{"type":"Point","coordinates":[50.204476181000075,26.296487149000029]},"properties":{"OBJECTID":103,"RoadName":"Prince Miqren Bin Abdulaziz Street"}},{"type":"Feature","id":104,"geometry":{"type":"Point","coordinates":[50.204347272000064,26.295849900000064]},"properties":{"OBJECTID":104,"RoadName":"17th Street"}},{"type":"Feature","id":106,"geometry":{"type":"Point","coordinates":[50.204515340000057,26.295920436000074]},"properties":{"OBJECTID":106,"RoadName":"17th Street"}},{"type":"Feature","id":107,"geometry":{"type":"Point","coordinates":[50.20424487400004,26.295328913000048]},"properties":{"OBJECTID":107,"RoadName":"Prince Miqren Bin Abdulaziz Street"}},{"type":"Feature","id":108,"geometry":{"type":"Point","coordinates":[50.204124113000034,26.294746876000033]},"properties":{"OBJECTID":108,"RoadName":"Prince Miqren Bin Abdulaziz Street"}},{"type":"Feature","id":109,"geometry":{"type":"Point","coordinates":[50.200752166000029,26.29565113700005]},"properties":{"OBJECTID":109,"RoadName":"Prince Sattam Street"}},{"type":"Feature","id":110,"geometry":{"type":"Point","coordinates":[50.20081990400007,26.295969081000067]},"properties":{"OBJECTID":110,"RoadName":"Prince Sattam Street"}},{"type":"Feature","id":111,"geometry":{"type":"Point","coordinates":[50.20116528300008,26.295212651000043]},"properties":{"OBJECTID":111,"RoadName":"Prince Abdulmajid Street"}},{"type":"Feature","id":112,"geometry":{"type":"Point","coordinates":[50.201905294000028,26.295501481000031]},"properties":{"OBJECTID":112,"RoadName":"Prince Mashhour Street"}},{"type":"Feature","id":113,"geometry":{"type":"Point","coordinates":[50.202474441000049,26.295429729000034]},"properties":{"OBJECTID":113,"RoadName":"Prince Hathool Street"}},{"type":"Feature","id":114,"geometry":{"type":"Point","coordinates":[50.203615165000031,26.295175560000075]},"properties":{"OBJECTID":114,"RoadName":"Prince MamdouhStreet"}},{"type":"Feature","id":115,"geometry":{"type":"Point","coordinates":[50.204948475000037,26.294796542000029]},"properties":{"OBJECTID":115,"RoadName":"16th Street"}},{"type":"Feature","id":116,"geometry":{"type":"Point","coordinates":[50.205341137000062,26.294584061000023]},"properties":{"OBJECTID":116,"RoadName":"Prince Mashari Street"}},{"type":"Feature","id":117,"geometry":{"type":"Point","coordinates":[50.205905281000071,26.294765337000058]},"properties":{"OBJECTID":117,"RoadName":"16th Street"}},{"type":"Feature","id":118,"geometry":{"type":"Point","coordinates":[50.206494947000067,26.294663571000058]},"properties":{"OBJECTID":118,"RoadName":"Prince Abdul Rahman Street"}},{"type":"Feature","id":119,"geometry":{"type":"Point","coordinates":[50.206994774000066,26.294311503000074]},"properties":{"OBJECTID":119,"RoadName":"Prince Abdul Mohshin Street"}},{"type":"Feature","id":120,"geometry":{"type":"Point","coordinates":[50.207803350000063,26.294172719000073]},"properties":{"OBJECTID":120,"RoadName":"16th Street"}},{"type":"Feature","id":121,"geometry":{"type":"Point","coordinates":[50.207885471000054,26.294786172000045]},"properties":{"OBJECTID":121,"RoadName":"King Abdulaziz Road"}},{"type":"Feature","id":122,"geometry":{"type":"Point","coordinates":[50.207984310000029,26.295291164000048]},"properties":{"OBJECTID":122,"RoadName":"King Abdulaziz Road"}},{"type":"Feature","id":123,"geometry":{"type":"Point","coordinates":[50.208092885000042,26.295820422000077]},"properties":{"OBJECTID":123,"RoadName":"King Abdulaziz Road"}},{"type":"Feature","id":124,"geometry":{"type":"Point","coordinates":[50.208103321000067,26.296289331000025]},"properties":{"OBJECTID":124,"RoadName":"19th Street"}},{"type":"Feature","id":125,"geometry":{"type":"Point","coordinates":[50.208197219000056,26.296326216000068]},"properties":{"OBJECTID":125,"RoadName":"King Abdulaziz Road"}},{"type":"Feature","id":127,"geometry":{"type":"Point","coordinates":[50.208391006000056,26.297317032000024]},"properties":{"OBJECTID":127,"RoadName":"King Abdulaziz Road"}},{"type":"Feature","id":128,"geometry":{"type":"Point","coordinates":[50.208496409000077,26.297771824000051]},"properties":{"OBJECTID":128,"RoadName":"King Abdulaziz Road"}},{"type":"Feature","id":129,"geometry":{"type":"Point","coordinates":[50.208469665000052,26.295260281000026]},"properties":{"OBJECTID":129,"RoadName":"King Abdulaziz Road"}},{"type":"Feature","id":130,"geometry":{"type":"Point","coordinates":[50.208583184000076,26.295736704000035]},"properties":{"OBJECTID":130,"RoadName":"King Abdulaziz Road"}},{"type":"Feature","id":131,"geometry":{"type":"Point","coordinates":[50.208768712000051,26.296698058000061]},"properties":{"OBJECTID":131,"RoadName":"King Abdulaziz Road"}},{"type":"Feature","id":132,"geometry":{"type":"Point","coordinates":[50.208778437000035,26.296766706000028]},"properties":{"OBJECTID":132,"RoadName":"King Abdulaziz Road"}},{"type":"Feature","id":133,"geometry":{"type":"Point","coordinates":[50.208844018000036,26.297069603000068]},"properties":{"OBJECTID":133,"RoadName":"King Abdulaziz Road"}},{"type":"Feature","id":134,"geometry":{"type":"Point","coordinates":[50.207624468000063,26.297387396000033]},"properties":{"OBJECTID":134,"RoadName":"Prince Abdul Mohshin Street"}},{"type":"Feature","id":135,"geometry":{"type":"Point","coordinates":[50.207143748000078,26.297345245000031]},"properties":{"OBJECTID":135,"RoadName":"20th Street"}},{"type":"Feature","id":136,"geometry":{"type":"Point","coordinates":[50.207023078000077,26.297329155000057]},"properties":{"OBJECTID":136,"RoadName":"Prince Abdul Rahman Street"}},{"type":"Feature","id":137,"geometry":{"type":"Point","coordinates":[50.207011011000077,26.297420663000025]},"properties":{"OBJECTID":137,"RoadName":"20th Street"}},{"type":"Feature","id":138,"geometry":{"type":"Point","coordinates":[50.206764644000032,26.297410608000064]},"properties":{"OBJECTID":138,"RoadName":"20th Street"}},{"type":"Feature","id":139,"geometry":{"type":"Point","coordinates":[50.206511207000062,26.297715218000064]},"properties":{"OBJECTID":139,"RoadName":"Prince Methab Street"}},{"type":"Feature","id":140,"geometry":{"type":"Point","coordinates":[50.206004109000048,26.297528921000037]},"properties":{"OBJECTID":140,"RoadName":"20th Street"}},{"type":"Feature","id":141,"geometry":{"type":"Point","coordinates":[50.206033176000062,26.297772460000033]},"properties":{"OBJECTID":141,"RoadName":"Prince Mashari Street"}},{"type":"Feature","id":142,"geometry":{"type":"Point","coordinates":[50.205459397000027,26.297815355000068]},"properties":{"OBJECTID":142,"RoadName":"Prince Ahmad Street"}},{"type":"Feature","id":143,"geometry":{"type":"Point","coordinates":[50.205267872000036,26.297655214000031]},"properties":{"OBJECTID":143,"RoadName":"20th Street"}},{"type":"Feature","id":144,"geometry":{"type":"Point","coordinates":[50.204142309000076,26.297741247000033]},"properties":{"OBJECTID":144,"RoadName":"Prince MamdouhStreet"}},{"type":"Feature","id":145,"geometry":{"type":"Point","coordinates":[50.204390214000057,26.297873308000078]},"properties":{"OBJECTID":145,"RoadName":"20th Street"}},{"type":"Feature","id":146,"geometry":{"type":"Point","coordinates":[50.204191736000041,26.298081054000079]},"properties":{"OBJECTID":146,"RoadName":"Prince MamdouhStreet"}},{"type":"Feature","id":147,"geometry":{"type":"Point","coordinates":[50.20363337200007,26.297989151000024]},"properties":{"OBJECTID":147,"RoadName":"20th Street"}},{"type":"Feature","id":148,"geometry":{"type":"Point","coordinates":[50.202833490000046,26.298115277000079]},"properties":{"OBJECTID":148,"RoadName":"20th Street"}},{"type":"Feature","id":149,"geometry":{"type":"Point","coordinates":[50.201853838000034,26.298123175000057]},"properties":{"OBJECTID":149,"RoadName":"Prince Abdulmajid Street"}},{"type":"Feature","id":150,"geometry":{"type":"Point","coordinates":[50.201173805000053,26.298176434000027]},"properties":{"OBJECTID":150,"RoadName":"Prince Sattam Street"}},{"type":"Feature","id":151,"geometry":{"type":"Point","coordinates":[50.203983227000037,26.297019813000077]},"properties":{"OBJECTID":151,"RoadName":"Prince MamdouhStreet"}},{"type":"Feature","id":152,"geometry":{"type":"Point","coordinates":[50.203807426000026,26.297015062000071]},"properties":{"OBJECTID":152,"RoadName":"19th Street"}},{"type":"Feature","id":153,"geometry":{"type":"Point","coordinates":[50.203441904000044,26.297078678000048]},"properties":{"OBJECTID":153,"RoadName":"19th Street"}},{"type":"Feature","id":154,"geometry":{"type":"Point","coordinates":[50.203434153000046,26.297174295000048]},"properties":{"OBJECTID":154,"RoadName":"Prince Abdul Salam Street"}},{"type":"Feature","id":155,"geometry":{"type":"Point","coordinates":[50.203059006000046,26.297138708000034]},"properties":{"OBJECTID":155,"RoadName":"19th Street"}},{"type":"Feature","id":156,"geometry":{"type":"Point","coordinates":[50.202797419000035,26.296928028000025]},"properties":{"OBJECTID":156,"RoadName":"Prince Hathool Street"}},{"type":"Feature","id":157,"geometry":{"type":"Point","coordinates":[50.205300493000038,26.296769988000051]},"properties":{"OBJECTID":157,"RoadName":"19th Street"}},{"type":"Feature","id":158,"geometry":{"type":"Point","coordinates":[50.205204112000047,26.296623191000037]},"properties":{"OBJECTID":158,"RoadName":"Prince Ahmad Street"}},{"type":"Feature","id":159,"geometry":{"type":"Point","coordinates":[50.20549948200005,26.296737551000035]},"properties":{"OBJECTID":159,"RoadName":"19th Street"}},{"type":"Feature","id":160,"geometry":{"type":"Point","coordinates":[50.205769797000073,26.296557948000043]},"properties":{"OBJECTID":160,"RoadName":"Prince Mashari Street"}},{"type":"Feature","id":161,"geometry":{"type":"Point","coordinates":[50.205903533000026,26.296669011000063]},"properties":{"OBJECTID":161,"RoadName":"19th Street"}},{"type":"Feature","id":162,"geometry":{"type":"Point","coordinates":[50.206242145000033,26.296610614000031]},"properties":{"OBJECTID":162,"RoadName":"19th Street"}},{"type":"Feature","id":163,"geometry":{"type":"Point","coordinates":[50.206302006000044,26.296670474000052]},"properties":{"OBJECTID":163,"RoadName":"Prince Methab Street"}},{"type":"Feature","id":164,"geometry":{"type":"Point","coordinates":[50.20660441800004,26.296548421000068]},"properties":{"OBJECTID":164,"RoadName":"19th Street"}},{"type":"Feature","id":165,"geometry":{"type":"Point","coordinates":[50.206874871000082,26.296626123000067]},"properties":{"OBJECTID":165,"RoadName":"Prince Abdul Rahman Street"}},{"type":"Feature","id":168,"geometry":{"type":"Point","coordinates":[50.206779599000072,26.296118098000079]},"properties":{"OBJECTID":168,"RoadName":"Prince Abdul Rahman Street"}},{"type":"Feature","id":169,"geometry":{"type":"Point","coordinates":[50.206985349000036,26.296490893000055]},"properties":{"OBJECTID":169,"RoadName":"19th Street"}},{"type":"Feature","id":170,"geometry":{"type":"Point","coordinates":[50.207309529000042,26.296438029000058]},"properties":{"OBJECTID":170,"RoadName":"19th Street"}},{"type":"Feature","id":171,"geometry":{"type":"Point","coordinates":[50.207416034000062,26.296293431000038]},"properties":{"OBJECTID":171,"RoadName":"Prince Abdul Mohshin Street"}},{"type":"Feature","id":172,"geometry":{"type":"Point","coordinates":[50.207490001000053,26.295438536000063]},"properties":{"OBJECTID":172,"RoadName":"17th Street"}},{"type":"Feature","id":173,"geometry":{"type":"Point","coordinates":[50.207243543000061,26.295540579000033]},"properties":{"OBJECTID":173,"RoadName":"Prince Abdul Mohshin Street"}},{"type":"Feature","id":174,"geometry":{"type":"Point","coordinates":[50.20716744300006,26.295486099000072]},"properties":{"OBJECTID":174,"RoadName":"17th Street"}},{"type":"Feature","id":175,"geometry":{"type":"Point","coordinates":[50.207207789000051,26.295269614000063]},"properties":{"OBJECTID":175,"RoadName":"Prince Abdul Mohshin Street"}},{"type":"Feature","id":176,"geometry":{"type":"Point","coordinates":[50.206877212000052,26.29552196700007]},"properties":{"OBJECTID":176,"RoadName":"17th Street"}},{"type":"Feature","id":177,"geometry":{"type":"Point","coordinates":[50.206671588000063,26.295580001000076]},"properties":{"OBJECTID":177,"RoadName":"Prince Abdul Rahman Street"}},{"type":"Feature","id":178,"geometry":{"type":"Point","coordinates":[50.206409592000057,26.295592009000075]},"properties":{"OBJECTID":178,"RoadName":"17th Street"}},{"type":"Feature","id":179,"geometry":{"type":"Point","coordinates":[50.206104468000035,26.295709934000058]},"properties":{"OBJECTID":179,"RoadName":"Prince Methab Street"}},{"type":"Feature","id":182,"geometry":{"type":"Point","coordinates":[50.206000010000082,26.295665246000056]},"properties":{"OBJECTID":182,"RoadName":"17th Street"}},{"type":"Feature","id":183,"geometry":{"type":"Point","coordinates":[50.205581386000063,26.295571485000039]},"properties":{"OBJECTID":183,"RoadName":"Prince Mashari Street"}},{"type":"Feature","id":184,"geometry":{"type":"Point","coordinates":[50.205664583000043,26.295983506000027]},"properties":{"OBJECTID":184,"RoadName":"Prince Mashari Street"}},{"type":"Feature","id":185,"geometry":{"type":"Point","coordinates":[50.20526774800004,26.295791361000056]},"properties":{"OBJECTID":185,"RoadName":"17th Street"}},{"type":"Feature","id":186,"geometry":{"type":"Point","coordinates":[50.204722348000075,26.295883802000048]},"properties":{"OBJECTID":186,"RoadName":"17th Street"}},{"type":"Feature","id":187,"geometry":{"type":"Point","coordinates":[50.203803224000069,26.296087832000069]},"properties":{"OBJECTID":187,"RoadName":"Prince MamdouhStreet"}},{"type":"Feature","id":188,"geometry":{"type":"Point","coordinates":[50.203562342000055,26.296044336000023]},"properties":{"OBJECTID":188,"RoadName":"17th Street"}},{"type":"Feature","id":189,"geometry":{"type":"Point","coordinates":[50.203274402000034,26.296122209000032]},"properties":{"OBJECTID":189,"RoadName":"17th Street"}},{"type":"Feature","id":190,"geometry":{"type":"Point","coordinates":[50.203232160000027,26.296209591000036]},"properties":{"OBJECTID":190,"RoadName":"Prince Abdul Salam Street"}},{"type":"Feature","id":191,"geometry":{"type":"Point","coordinates":[50.202935640000078,26.296176047000074]},"properties":{"OBJECTID":191,"RoadName":"17th Street"}},{"type":"Feature","id":192,"geometry":{"type":"Point","coordinates":[50.202670258000069,26.296376643000031]},"properties":{"OBJECTID":192,"RoadName":"Prince Hathool Street"}},{"type":"Feature","id":193,"geometry":{"type":"Point","coordinates":[50.202472250000028,26.296249814000078]},"properties":{"OBJECTID":193,"RoadName":"17th Street"}},{"type":"Feature","id":194,"geometry":{"type":"Point","coordinates":[50.201698881000027,26.296380628000065]},"properties":{"OBJECTID":194,"RoadName":"17th Street"}},{"type":"Feature","id":195,"geometry":{"type":"Point","coordinates":[50.202147413000034,26.296316464000029]},"properties":{"OBJECTID":195,"RoadName":"17th Street"}},{"type":"Feature","id":196,"geometry":{"type":"Point","coordinates":[50.202115706000029,26.296555238000053]},"properties":{"OBJECTID":196,"RoadName":"Prince Mashhour Street"}},{"type":"Feature","id":197,"geometry":{"type":"Point","coordinates":[50.201357970000061,26.296434880000049]},"properties":{"OBJECTID":197,"RoadName":"17th Street"}},{"type":"Feature","id":199,"geometry":{"type":"Point","coordinates":[50.200948891000053,26.296634263000044]},"properties":{"OBJECTID":199,"RoadName":"Prince Sattam Street"}},{"type":"Feature","id":200,"geometry":{"type":"Point","coordinates":[50.202996084000063,26.299241232000043]},"properties":{"OBJECTID":200,"RoadName":"22nd Street"}},{"type":"Feature","id":201,"geometry":{"type":"Point","coordinates":[50.205264085000067,26.296927715000038]},"properties":{"OBJECTID":201,"RoadName":"Prince Ahmad Street"}},{"type":"Feature","id":202,"geometry":{"type":"Point","coordinates":[50.205183012000077,26.297002436000071]},"properties":{"OBJECTID":202,"RoadName":"Prince Ahmad Street"}},{"type":"Feature","id":203,"geometry":{"type":"Point","coordinates":[50.205163359000039,26.296920109000041]},"properties":{"OBJECTID":203,"RoadName":"Prince Ahmad Street"}},{"type":"Feature","id":204,"geometry":{"type":"Point","coordinates":[50.205151674000035,26.296833532000051]},"properties":{"OBJECTID":204,"RoadName":"Prince Ahmad Street"}},{"type":"Feature","id":205,"geometry":{"type":"Point","coordinates":[50.205099091000079,26.296582301000058]},"properties":{"OBJECTID":205,"RoadName":"Prince Ahmad Street"}},{"type":"Feature","id":206,"geometry":{"type":"Point","coordinates":[50.205065098000034,26.295973611000079]},"properties":{"OBJECTID":206,"RoadName":"Prince Ahmad Street"}},{"type":"Feature","id":207,"geometry":{"type":"Point","coordinates":[50.205126179000047,26.296192442000063]},"properties":{"OBJECTID":207,"RoadName":"Prince Ahmad Street"}},{"type":"Feature","id":208,"geometry":{"type":"Point","coordinates":[50.203288422000071,26.296487592000062]},"properties":{"OBJECTID":208,"RoadName":"Prince Abdul Salam Street"}},{"type":"Feature","id":209,"geometry":{"type":"Point","coordinates":[50.203355645000045,26.296832835000032]},"properties":{"OBJECTID":209,"RoadName":"Prince Abdul Salam Street"}},{"type":"Feature","id":210,"geometry":{"type":"Point","coordinates":[50.202727173000028,26.296629254000038]},"properties":{"OBJECTID":210,"RoadName":"Prince Hathool Street"}},{"type":"Feature","id":211,"geometry":{"type":"Point","coordinates":[50.20215132900006,26.296707602000026]},"properties":{"OBJECTID":211,"RoadName":"Prince Mashhour Street"}},{"type":"Feature","id":212,"geometry":{"type":"Point","coordinates":[50.20164264400006,26.297164979000058]},"properties":{"OBJECTID":212,"RoadName":"Prince Abdulmajid Street"}},{"type":"Feature","id":213,"geometry":{"type":"Point","coordinates":[50.20131196400007,26.298427065000055]},"properties":{"OBJECTID":213,"RoadName":"Prince Sattam Street"}},{"type":"Feature","id":214,"geometry":{"type":"Point","coordinates":[50.202996549000034,26.297921880000047]},"properties":{"OBJECTID":214,"RoadName":"Prince Hathool Street"}},{"type":"Feature","id":215,"geometry":{"type":"Point","coordinates":[50.202863166000043,26.297331392000046]},"properties":{"OBJECTID":215,"RoadName":"Prince Hathool Street"}},{"type":"Feature","id":216,"geometry":{"type":"Point","coordinates":[50.202934363000054,26.297635873000047]},"properties":{"OBJECTID":216,"RoadName":"Prince Hathool Street"}},{"type":"Feature","id":217,"geometry":{"type":"Point","coordinates":[50.20370325500005,26.298531336000053]},"properties":{"OBJECTID":217,"RoadName":"Prince Abdul Salam Street"}},{"type":"Feature","id":218,"geometry":{"type":"Point","coordinates":[50.203768985000067,26.298822840000071]},"properties":{"OBJECTID":218,"RoadName":"Prince Abdul Salam Street"}},{"type":"Feature","id":219,"geometry":{"type":"Point","coordinates":[50.20361633300007,26.298142963000032]},"properties":{"OBJECTID":219,"RoadName":"Prince Abdul Salam Street"}},{"type":"Feature","id":220,"geometry":{"type":"Point","coordinates":[50.204275511000048,26.298425810000026]},"properties":{"OBJECTID":220,"RoadName":"Prince MamdouhStreet"}},{"type":"Feature","id":221,"geometry":{"type":"Point","coordinates":[50.205337598000028,26.297318047000033]},"properties":{"OBJECTID":221,"RoadName":"Prince Ahmad Street"}},{"type":"Feature","id":222,"geometry":{"type":"Point","coordinates":[50.20564991100008,26.297583503000055]},"properties":{"OBJECTID":222,"RoadName":"20th Street"}},{"type":"Feature","id":223,"geometry":{"type":"Point","coordinates":[50.20551662500003,26.298120256000061]},"properties":{"OBJECTID":223,"RoadName":"Prince Ahmad Street"}},{"type":"Feature","id":224,"geometry":{"type":"Point","coordinates":[50.205921438000075,26.297288187000049]},"properties":{"OBJECTID":224,"RoadName":"Prince Mashari Street"}},{"type":"Feature","id":226,"geometry":{"type":"Point","coordinates":[50.205848429000071,26.296926425000038]},"properties":{"OBJECTID":226,"RoadName":"Prince Mashari Street"}},{"type":"Feature","id":227,"geometry":{"type":"Point","coordinates":[50.206587112000079,26.298048330000029]},"properties":{"OBJECTID":227,"RoadName":"Prince Methab Street"}},{"type":"Feature","id":228,"geometry":{"type":"Point","coordinates":[50.20695071800003,26.296923597000045]},"properties":{"OBJECTID":228,"RoadName":"Prince Abdul Rahman Street"}},{"type":"Feature","id":229,"geometry":{"type":"Point","coordinates":[50.207552836000048,26.297266470000068]},"properties":{"OBJECTID":229,"RoadName":"20th Street"}},{"type":"Feature","id":230,"geometry":{"type":"Point","coordinates":[50.207476974000031,26.296645237000064]},"properties":{"OBJECTID":230,"RoadName":"Prince Abdul Mohshin Street"}},{"type":"Feature","id":231,"geometry":{"type":"Point","coordinates":[50.208022346000064,26.297194192000063]},"properties":{"OBJECTID":231,"RoadName":"20th Street"}},{"type":"Feature","id":232,"geometry":{"type":"Point","coordinates":[50.20769612600003,26.296349028000066]},"properties":{"OBJECTID":232,"RoadName":"19th Street"}},{"type":"Feature","id":233,"geometry":{"type":"Point","coordinates":[50.207324055000072,26.295920663000061]},"properties":{"OBJECTID":233,"RoadName":"Prince Abdul Mohshin Street"}},{"type":"Feature","id":234,"geometry":{"type":"Point","coordinates":[50.207080938000047,26.294646537000062]},"properties":{"OBJECTID":234,"RoadName":"Prince Abdul Mohshin Street"}},{"type":"Feature","id":235,"geometry":{"type":"Point","coordinates":[50.207112358000074,26.294845068000029]},"properties":{"OBJECTID":235,"RoadName":"Prince Abdul Mohshin Street"}},{"type":"Feature","id":236,"geometry":{"type":"Point","coordinates":[50.207780423000031,26.298156507000044]},"properties":{"OBJECTID":236,"RoadName":"Prince Abdul Mohshin Street"}},{"type":"Feature","id":237,"geometry":{"type":"Point","coordinates":[50.20716473300007,26.297996348000027]},"properties":{"OBJECTID":237,"RoadName":"Prince Abdul Rahman Street"}},{"type":"Feature","id":238,"geometry":{"type":"Point","coordinates":[50.207098381000037,26.29767245000005]},"properties":{"OBJECTID":238,"RoadName":"Prince Abdul Rahman Street"}},{"type":"Feature","id":239,"geometry":{"type":"Point","coordinates":[50.206558862000065,26.29503958600003]},"properties":{"OBJECTID":239,"RoadName":"Prince Abdul Rahman Street"}},{"type":"Feature","id":240,"geometry":{"type":"Point","coordinates":[50.206058291000033,26.295398588000069]},"properties":{"OBJECTID":240,"RoadName":"Prince Methab Street"}},{"type":"Feature","id":241,"geometry":{"type":"Point","coordinates":[50.205974664000053,26.295027154000024]},"properties":{"OBJECTID":241,"RoadName":"Prince Methab Street"}},{"type":"Feature","id":242,"geometry":{"type":"Point","coordinates":[50.20623749400005,26.296335217000035]},"properties":{"OBJECTID":242,"RoadName":"Prince Methab Street"}},{"type":"Feature","id":243,"geometry":{"type":"Point","coordinates":[50.206345612000064,26.296895522000057]},"properties":{"OBJECTID":243,"RoadName":"Prince Methab Street"}},{"type":"Feature","id":244,"geometry":{"type":"Point","coordinates":[50.206435213000077,26.297261692000063]},"properties":{"OBJECTID":244,"RoadName":"Prince Methab Street"}},{"type":"Feature","id":245,"geometry":{"type":"Point","coordinates":[50.201971290000074,26.295817323000051]},"properties":{"OBJECTID":245,"RoadName":"Prince Mashhour Street"}},{"type":"Feature","id":246,"geometry":{"type":"Point","coordinates":[50.200898206000033,26.296323569000037]},"properties":{"OBJECTID":246,"RoadName":"Prince Sattam Street"}},{"type":"Feature","id":247,"geometry":{"type":"Point","coordinates":[50.201093798000045,26.29728857200007]},"properties":{"OBJECTID":247,"RoadName":"Prince Sattam Street"}},{"type":"Feature","id":248,"geometry":{"type":"Point","coordinates":[50.201019089000056,26.29693754300007]},"properties":{"OBJECTID":248,"RoadName":"Prince Sattam Street"}},{"type":"Feature","id":249,"geometry":{"type":"Point","coordinates":[50.201145169000029,26.297559764000027]},"properties":{"OBJECTID":249,"RoadName":"Prince Sattam Street"}},{"type":"Feature","id":250,"geometry":{"type":"Point","coordinates":[50.20120066800007,26.29787426200005]},"properties":{"OBJECTID":250,"RoadName":"Prince Sattam Street"}},{"type":"Feature","id":251,"geometry":{"type":"Point","coordinates":[50.20138447800008,26.298742796000056]},"properties":{"OBJECTID":251,"RoadName":"Prince Sattam Street"}},{"type":"Feature","id":252,"geometry":{"type":"Point","coordinates":[50.201934086000051,26.298592228000075]},"properties":{"OBJECTID":252,"RoadName":"Prince Abdulmajid Street"}},{"type":"Feature","id":253,"geometry":{"type":"Point","coordinates":[50.203059174000032,26.29824760300005]},"properties":{"OBJECTID":253,"RoadName":"Prince Hathool Street"}},{"type":"Feature","id":254,"geometry":{"type":"Point","coordinates":[50.203126900000029,26.298571191000065]},"properties":{"OBJECTID":254,"RoadName":"Prince Hathool Street"}},{"type":"Feature","id":255,"geometry":{"type":"Point","coordinates":[50.203187185000047,26.298916102000078]},"properties":{"OBJECTID":255,"RoadName":"Prince Hathool Street"}},{"type":"Feature","id":257,"geometry":{"type":"Point","coordinates":[50.20260232000004,26.296009415000071]},"properties":{"OBJECTID":257,"RoadName":"Prince Hathool Street"}},{"type":"Feature","id":258,"geometry":{"type":"Point","coordinates":[50.202550511000027,26.295736042000044]},"properties":{"OBJECTID":258,"RoadName":"Prince Hathool Street"}},{"type":"Feature","id":259,"geometry":{"type":"Point","coordinates":[50.20303300300003,26.295264680000059]},"properties":{"OBJECTID":259,"RoadName":"Prince Abdul Salam Street"}},{"type":"Feature","id":260,"geometry":{"type":"Point","coordinates":[50.203498143000047,26.297524630000055]},"properties":{"OBJECTID":260,"RoadName":"Prince Abdul Salam Street"}},{"type":"Feature","id":261,"geometry":{"type":"Point","coordinates":[50.203547889000049,26.297806679000075]},"properties":{"OBJECTID":261,"RoadName":"Prince Abdul Salam Street"}}]}